{
  "type": "FeatureCollection",
  "name": "redfield_poc001_osm_buildings_review",
  "earthforge_status": "REVIEW_ONLY",
  "features": [
    {
      "type": "Feature",
      "properties": {
        "osm_type": "way",
        "osm_id": 562892810,
        "tags": {
          "addr:city": "Redfield",
          "addr:housenumber": "106",
          "addr:postcode": "57469",
          "addr:state": "SD",
          "addr:street": "East 7th Avenue",
          "amenity": "bank",
          "atm": "yes",
          "brand": "First Interstate BancSystem",
          "brand:wikidata": "Q5453107",
          "building": "yes",
          "drive_through": "yes",
          "layer": "1",
          "name": "First Interstate Bank",
          "opening_hours": "Mo-Fr 08:30-16:00",
          "source": "esri"
        },
        "earthforge_status": "unverified",
        "earthforge_class": "building"
      },
      "geometry": {
        "type": "Polygon",
        "coordinates": [
          [
            [
              -98.516559,
              44.8755846
            ],
            [
              -98.5163715,
              44.8755843
            ],
            [
              -98.5163716,
              44.8755585
            ],
            [
              -98.5162811,
              44.8755583
            ],
            [
              -98.5162814,
              44.8754802
            ],
            [
              -98.5163724,
              44.8754803
            ],
            [
              -98.5163725,
              44.8754492
            ],
            [
              -98.5165601,
              44.8754496
            ],
            [
              -98.51656,
              44.8754807
            ],
            [
              -98.5166095,
              44.8754808
            ],
            [
              -98.5166093,
              44.8755585
            ],
            [
              -98.516559,
              44.8755584
            ],
            [
              -98.516559,
              44.8755846
            ]
          ]
        ]
      }
    },
    {
      "type": "Feature",
      "properties": {
        "osm_type": "way",
        "osm_id": 743711229,
        "tags": {
          "building": "yes"
        },
        "earthforge_status": "unverified",
        "earthforge_class": "building"
      },
      "geometry": {
        "type": "Polygon",
        "coordinates": [
          [
            [
              -98.5208899,
              44.875212
            ],
            [
              -98.5203722,
              44.875212
            ],
            [
              -98.5203722,
              44.8750733
            ],
            [
              -98.5208899,
              44.8750733
            ],
            [
              -98.5208899,
              44.875212
            ]
          ]
        ]
      }
    },
    {
      "type": "Feature",
      "properties": {
        "osm_type": "way",
        "osm_id": 1210548883,
        "tags": {
          "building": "yes"
        },
        "earthforge_status": "unverified",
        "earthforge_class": "building"
      },
      "geometry": {
        "type": "Polygon",
        "coordinates": [
          [
            [
              -98.5179676,
              44.8770671
            ],
            [
              -98.5183445,
              44.87707
            ],
            [
              -98.5183414,
              44.877271
            ],
            [
              -98.5179646,
              44.8772682
            ],
            [
              -98.5179676,
              44.8770671
            ]
          ]
        ]
      }
    },
    {
      "type": "Feature",
      "properties": {
        "osm_type": "way",
        "osm_id": 1210548884,
        "tags": {
          "building": "yes"
        },
        "earthforge_status": "unverified",
        "earthforge_class": "building"
      },
      "geometry": {
        "type": "Polygon",
        "coordinates": [
          [
            [
              -98.5179579,
              44.8774004
            ],
            [
              -98.5179571,
              44.8772833
            ],
            [
              -98.5183497,
              44.877282
            ],
            [
              -98.5183505,
              44.877399
            ],
            [
              -98.5179579,
              44.8774004
            ]
          ]
        ]
      }
    },
    {
      "type": "Feature",
      "properties": {
        "osm_type": "way",
        "osm_id": 1210548939,
        "tags": {
          "building": "yes"
        },
        "earthforge_status": "unverified",
        "earthforge_class": "building"
      },
      "geometry": {
        "type": "Polygon",
        "coordinates": [
          [
            [
              -98.5176364,
              44.8752006
            ],
            [
              -98.5174059,
              44.8751989
            ],
            [
              -98.5174099,
              44.8749252
            ],
            [
              -98.5176404,
              44.8749269
            ],
            [
              -98.5176364,
              44.8752006
            ]
          ]
        ]
      }
    },
    {
      "type": "Feature",
      "properties": {
        "osm_type": "way",
        "osm_id": 1210548942,
        "tags": {
          "building": "yes"
        },
        "earthforge_status": "unverified",
        "earthforge_class": "building"
      },
      "geometry": {
        "type": "Polygon",
        "coordinates": [
          [
            [
              -98.5187478,
              44.8750564
            ],
            [
              -98.5187458,
              44.874913
            ],
            [
              -98.5192209,
              44.8749096
            ],
            [
              -98.5192229,
              44.8750531
            ],
            [
              -98.5187478,
              44.8750564
            ]
          ]
        ]
      }
    },
    {
      "type": "Feature",
      "properties": {
        "osm_type": "way",
        "osm_id": 1210548943,
        "tags": {
          "brand": "Ford",
          "brand:wikidata": "Q44294",
          "building": "yes",
          "name": "Ford",
          "shop": "car"
        },
        "earthforge_status": "unverified",
        "earthforge_class": "building"
      },
      "geometry": {
        "type": "Polygon",
        "coordinates": [
          [
            [
              -98.5190137,
              44.8750695
            ],
            [
              -98.5190271,
              44.8754705
            ],
            [
              -98.5187531,
              44.8754751
            ],
            [
              -98.5187397,
              44.8750741
            ],
            [
              -98.5190137,
              44.8750695
            ]
          ]
        ]
      }
    },
    {
      "type": "Feature",
      "properties": {
        "osm_type": "way",
        "osm_id": 1210548944,
        "tags": {
          "building": "retail"
        },
        "earthforge_status": "unverified",
        "earthforge_class": "building"
      },
      "geometry": {
        "type": "Polygon",
        "coordinates": [
          [
            [
              -98.5182852,
              44.8768367
            ],
            [
              -98.5180992,
              44.8768364
            ],
            [
              -98.5180992,
              44.8768466
            ],
            [
              -98.5180609,
              44.8768465
            ],
            [
              -98.5180609,
              44.8768362
            ],
            [
              -98.5179133,
              44.8768359
            ],
            [
              -98.5179136,
              44.8767249
            ],
            [
              -98.5182856,
              44.8767255
            ],
            [
              -98.5182852,
              44.8768367
            ]
          ]
        ]
      }
    },
    {
      "type": "Feature",
      "properties": {
        "osm_type": "way",
        "osm_id": 1210548945,
        "tags": {
          "building": "yes"
        },
        "earthforge_status": "unverified",
        "earthforge_class": "building"
      },
      "geometry": {
        "type": "Polygon",
        "coordinates": [
          [
            [
              -98.5169887,
              44.876434
            ],
            [
              -98.5169906,
              44.8762909
            ],
            [
              -98.5171057,
              44.8762917
            ],
            [
              -98.5171038,
              44.8764348
            ],
            [
              -98.5169887,
              44.876434
            ]
          ]
        ]
      }
    },
    {
      "type": "Feature",
      "properties": {
        "osm_type": "way",
        "osm_id": 1210548946,
        "tags": {
          "building": "yes"
        },
        "earthforge_status": "unverified",
        "earthforge_class": "building"
      },
      "geometry": {
        "type": "Polygon",
        "coordinates": [
          [
            [
              -98.5170238,
              44.8760732
            ],
            [
              -98.5170219,
              44.8758964
            ],
            [
              -98.5172056,
              44.8758955
            ],
            [
              -98.5172075,
              44.8760722
            ],
            [
              -98.5170238,
              44.8760732
            ]
          ]
        ]
      }
    },
    {
      "type": "Feature",
      "properties": {
        "osm_type": "way",
        "osm_id": 1393414142,
        "tags": {
          "building": "yes"
        },
        "earthforge_status": "unverified",
        "earthforge_class": "building"
      },
      "geometry": {
        "type": "Polygon",
        "coordinates": [
          [
            [
              -98.5179111,
              44.875583
            ],
            [
              -98.5183578,
              44.875584
            ],
            [
              -98.5183595,
              44.8752345
            ],
            [
              -98.5181681,
              44.875234
            ],
            [
              -98.5181675,
              44.875356
            ],
            [
              -98.5180254,
              44.8753557
            ],
            [
              -98.5180256,
              44.87532
            ],
            [
              -98.5179123,
              44.8753197
            ],
            [
              -98.5179111,
              44.875583
            ]
          ]
        ]
      }
    },
    {
      "type": "Feature",
      "properties": {
        "osm_type": "way",
        "osm_id": 1393414143,
        "tags": {
          "building": "retail"
        },
        "earthforge_status": "unverified",
        "earthforge_class": "building"
      },
      "geometry": {
        "type": "Polygon",
        "coordinates": [
          [
            [
              -98.518041,
              44.8760125
            ],
            [
              -98.5180414,
              44.8758803
            ],
            [
              -98.5183516,
              44.8758807
            ],
            [
              -98.5183515,
              44.8760127
            ],
            [
              -98.5182459,
              44.8760126
            ],
            [
              -98.5181366,
              44.8760126
            ],
            [
              -98.518041,
              44.8760125
            ]
          ]
        ]
      }
    },
    {
      "type": "Feature",
      "properties": {
        "osm_type": "way",
        "osm_id": 1393414144,
        "tags": {
          "building": "retail"
        },
        "earthforge_status": "unverified",
        "earthforge_class": "building"
      },
      "geometry": {
        "type": "Polygon",
        "coordinates": [
          [
            [
              -98.5187392,
              44.8760219
            ],
            [
              -98.5187385,
              44.8760868
            ],
            [
              -98.5191228,
              44.8760889
            ],
            [
              -98.519149,
              44.8760891
            ],
            [
              -98.5191497,
              44.8760242
            ],
            [
              -98.5187392,
              44.8760219
            ]
          ]
        ]
      }
    },
    {
      "type": "Feature",
      "properties": {
        "osm_type": "way",
        "osm_id": 1474301407,
        "tags": {
          "building": "retail"
        },
        "earthforge_status": "unverified",
        "earthforge_class": "building"
      },
      "geometry": {
        "type": "Polygon",
        "coordinates": [
          [
            [
              -98.5190072,
              44.876363
            ],
            [
              -98.5187387,
              44.8763623
            ],
            [
              -98.5187388,
              44.876434
            ],
            [
              -98.5191143,
              44.8764339
            ],
            [
              -98.5191144,
              44.8764021
            ],
            [
              -98.5190459,
              44.876402
            ],
            [
              -98.5190459,
              44.8763923
            ],
            [
              -98.5190071,
              44.8763923
            ],
            [
              -98.5190072,
              44.876363
            ]
          ]
        ]
      }
    },
    {
      "type": "Feature",
      "properties": {
        "osm_type": "way",
        "osm_id": 1474301409,
        "tags": {
          "building": "yes"
        },
        "earthforge_status": "unverified",
        "earthforge_class": "building"
      },
      "geometry": {
        "type": "Polygon",
        "coordinates": [
          [
            [
              -98.51786,
              44.8766988
            ],
            [
              -98.5178596,
              44.8766616
            ],
            [
              -98.5177786,
              44.8766621
            ],
            [
              -98.517779,
              44.8766993
            ],
            [
              -98.51786,
              44.8766988
            ]
          ]
        ]
      }
    },
    {
      "type": "Feature",
      "properties": {
        "osm_type": "way",
        "osm_id": 1474301413,
        "tags": {
          "building": "retail"
        },
        "earthforge_status": "unverified",
        "earthforge_class": "building"
      },
      "geometry": {
        "type": "Polygon",
        "coordinates": [
          [
            [
              -98.5183512,
              44.8760718
            ],
            [
              -98.518351,
              44.8761799
            ],
            [
              -98.5178731,
              44.8761794
            ],
            [
              -98.5177363,
              44.8761796
            ],
            [
              -98.5177359,
              44.8760716
            ],
            [
              -98.517832,
              44.8760714
            ],
            [
              -98.5179353,
              44.8760716
            ],
            [
              -98.5179956,
              44.8760714
            ],
            [
              -98.5183512,
              44.8760718
            ]
          ]
        ]
      }
    },
    {
      "type": "Feature",
      "properties": {
        "osm_type": "way",
        "osm_id": 1474301414,
        "tags": {
          "building": "retail"
        },
        "earthforge_status": "unverified",
        "earthforge_class": "building"
      },
      "geometry": {
        "type": "Polygon",
        "coordinates": [
          [
            [
              -98.5183503,
              44.8763631
            ],
            [
              -98.5183492,
              44.8764327
            ],
            [
              -98.5179093,
              44.8764315
            ],
            [
              -98.5179095,
              44.8763626
            ],
            [
              -98.5183503,
              44.8763631
            ]
          ]
        ]
      }
    },
    {
      "type": "Feature",
      "properties": {
        "osm_type": "way",
        "osm_id": 1474301418,
        "tags": {
          "building": "retail"
        },
        "earthforge_status": "unverified",
        "earthforge_class": "building"
      },
      "geometry": {
        "type": "Polygon",
        "coordinates": [
          [
            [
              -98.5187397,
              44.8761571
            ],
            [
              -98.518739,
              44.8762918
            ],
            [
              -98.5191692,
              44.8762928
            ],
            [
              -98.5192742,
              44.8762933
            ],
            [
              -98.5192754,
              44.8761588
            ],
            [
              -98.519122,
              44.8761581
            ],
            [
              -98.5187397,
              44.8761571
            ]
          ]
        ]
      }
    },
    {
      "type": "Feature",
      "properties": {
        "osm_type": "way",
        "osm_id": 1474301419,
        "tags": {
          "building": "retail"
        },
        "earthforge_status": "unverified",
        "earthforge_class": "building"
      },
      "geometry": {
        "type": "Polygon",
        "coordinates": [
          [
            [
              -98.5187374,
              44.8767019
            ],
            [
              -98.5187362,
              44.8768447
            ],
            [
              -98.5191232,
              44.8768461
            ],
            [
              -98.5191238,
              44.8767029
            ],
            [
              -98.5187374,
              44.8767019
            ]
          ]
        ]
      }
    },
    {
      "type": "Feature",
      "properties": {
        "osm_type": "way",
        "osm_id": 1474301421,
        "tags": {
          "building": "commercial"
        },
        "earthforge_status": "unverified",
        "earthforge_class": "building"
      },
      "geometry": {
        "type": "Polygon",
        "coordinates": [
          [
            [
              -98.5187402,
              44.8759932
            ],
            [
              -98.5187404,
              44.8758819
            ],
            [
              -98.5189342,
              44.8758821
            ],
            [
              -98.518934,
              44.8759907
            ],
            [
              -98.5189037,
              44.8759907
            ],
            [
              -98.5189036,
              44.8759965
            ],
            [
              -98.5188863,
              44.8759965
            ],
            [
              -98.5188863,
              44.8759924
            ],
            [
              -98.5188357,
              44.8759923
            ],
            [
              -98.5188357,
              44.8760083
            ],
            [
              -98.5187704,
              44.8760083
            ],
            [
              -98.5187704,
              44.8759932
            ],
            [
              -98.5187402,
              44.8759932
            ]
          ]
        ]
      }
    },
    {
      "type": "Feature",
      "properties": {
        "osm_type": "way",
        "osm_id": 1474301425,
        "tags": {
          "building": "retail"
        },
        "earthforge_status": "unverified",
        "earthforge_class": "building"
      },
      "geometry": {
        "type": "Polygon",
        "coordinates": [
          [
            [
              -98.5183489,
              44.8764971
            ],
            [
              -98.5183496,
              44.8765665
            ],
            [
              -98.5178849,
              44.876564
            ],
            [
              -98.5178856,
              44.8764959
            ],
            [
              -98.5183489,
              44.8764971
            ]
          ]
        ]
      }
    },
    {
      "type": "Feature",
      "properties": {
        "osm_type": "way",
        "osm_id": 1474301428,
        "tags": {
          "building": "retail"
        },
        "earthforge_status": "unverified",
        "earthforge_class": "building"
      },
      "geometry": {
        "type": "Polygon",
        "coordinates": [
          [
            [
              -98.5187388,
              44.8764996
            ],
            [
              -98.518738,
              44.8765704
            ],
            [
              -98.5190109,
              44.8765711
            ],
            [
              -98.5190109,
              44.8765621
            ],
            [
              -98.5190109,
              44.8765347
            ],
            [
              -98.5190109,
              44.8764995
            ],
            [
              -98.5187388,
              44.8764996
            ]
          ]
        ]
      }
    },
    {
      "type": "Feature",
      "properties": {
        "osm_type": "way",
        "osm_id": 1474301429,
        "tags": {
          "building": "retail"
        },
        "earthforge_status": "unverified",
        "earthforge_class": "building"
      },
      "geometry": {
        "type": "Polygon",
        "coordinates": [
          [
            [
              -98.5191692,
              44.8762928
            ],
            [
              -98.518739,
              44.8762918
            ],
            [
              -98.5187387,
              44.8763623
            ],
            [
              -98.5190072,
              44.876363
            ],
            [
              -98.5191694,
              44.8763635
            ],
            [
              -98.5191695,
              44.876347
            ],
            [
              -98.5191899,
              44.876347
            ],
            [
              -98.5191901,
              44.8763134
            ],
            [
              -98.5191691,
              44.8763134
            ],
            [
              -98.5191692,
              44.8762928
            ]
          ]
        ]
      }
    },
    {
      "type": "Feature",
      "properties": {
        "osm_type": "way",
        "osm_id": 1474301430,
        "tags": {
          "building": "retail"
        },
        "earthforge_status": "unverified",
        "earthforge_class": "building"
      },
      "geometry": {
        "type": "Polygon",
        "coordinates": [
          [
            [
              -98.518738,
              44.8765704
            ],
            [
              -98.5187374,
              44.8767019
            ],
            [
              -98.5191238,
              44.8767029
            ],
            [
              -98.5193136,
              44.876703
            ],
            [
              -98.5193138,
              44.8765713
            ],
            [
              -98.5190109,
              44.8765711
            ],
            [
              -98.518738,
              44.8765704
            ]
          ]
        ]
      }
    },
    {
      "type": "Feature",
      "properties": {
        "osm_type": "way",
        "osm_id": 1474301431,
        "tags": {
          "building": "retail"
        },
        "earthforge_status": "unverified",
        "earthforge_class": "building"
      },
      "geometry": {
        "type": "Polygon",
        "coordinates": [
          [
            [
              -98.5178731,
              44.8761794
            ],
            [
              -98.518351,
              44.8761799
            ],
            [
              -98.5183505,
              44.8762962
            ],
            [
              -98.5178733,
              44.8762957
            ],
            [
              -98.5178731,
              44.8761794
            ]
          ]
        ]
      }
    },
    {
      "type": "Feature",
      "properties": {
        "osm_type": "way",
        "osm_id": 1474301435,
        "tags": {
          "building": "retail"
        },
        "earthforge_status": "unverified",
        "earthforge_class": "building"
      },
      "geometry": {
        "type": "Polygon",
        "coordinates": [
          [
            [
              -98.5183515,
              44.8760127
            ],
            [
              -98.5183512,
              44.8760718
            ],
            [
              -98.5179956,
              44.8760714
            ],
            [
              -98.5179956,
              44.876056
            ],
            [
              -98.5180116,
              44.876056
            ],
            [
              -98.5180116,
              44.8760125
            ],
            [
              -98.518041,
              44.8760125
            ],
            [
              -98.5181366,
              44.8760126
            ],
            [
              -98.5181474,
              44.8760237
            ],
            [
              -98.5182344,
              44.876024
            ],
            [
              -98.5182459,
              44.8760126
            ],
            [
              -98.5183515,
              44.8760127
            ]
          ]
        ]
      }
    },
    {
      "type": "Feature",
      "properties": {
        "osm_type": "way",
        "osm_id": 1474301437,
        "tags": {
          "building": "yes"
        },
        "earthforge_status": "unverified",
        "earthforge_class": "building"
      },
      "geometry": {
        "type": "Polygon",
        "coordinates": [
          [
            [
              -98.5179353,
              44.8760716
            ],
            [
              -98.5179359,
              44.8760127
            ],
            [
              -98.5178326,
              44.8760121
            ],
            [
              -98.517832,
              44.8760714
            ],
            [
              -98.5179353,
              44.8760716
            ]
          ]
        ]
      }
    },
    {
      "type": "Feature",
      "properties": {
        "osm_type": "way",
        "osm_id": 1474301442,
        "tags": {
          "building": "retail"
        },
        "earthforge_status": "unverified",
        "earthforge_class": "building"
      },
      "geometry": {
        "type": "Polygon",
        "coordinates": [
          [
            [
              -98.5183492,
              44.8764327
            ],
            [
              -98.5183489,
              44.8764971
            ],
            [
              -98.5178856,
              44.8764959
            ],
            [
              -98.5177739,
              44.876496
            ],
            [
              -98.5177737,
              44.8764317
            ],
            [
              -98.5179093,
              44.8764315
            ],
            [
              -98.5183492,
              44.8764327
            ]
          ]
        ]
      }
    },
    {
      "type": "Feature",
      "properties": {
        "osm_type": "way",
        "osm_id": 1474301443,
        "tags": {
          "building": "yes"
        },
        "earthforge_status": "unverified",
        "earthforge_class": "building"
      },
      "geometry": {
        "type": "Polygon",
        "coordinates": [
          [
            [
              -98.5191517,
              44.8764997
            ],
            [
              -98.5191518,
              44.8765416
            ],
            [
              -98.5192471,
              44.8765414
            ],
            [
              -98.519247,
              44.8764996
            ],
            [
              -98.5191517,
              44.8764997
            ]
          ]
        ]
      }
    },
    {
      "type": "Feature",
      "properties": {
        "osm_type": "way",
        "osm_id": 1474301444,
        "tags": {
          "building": "retail"
        },
        "earthforge_status": "unverified",
        "earthforge_class": "building"
      },
      "geometry": {
        "type": "Polygon",
        "coordinates": [
          [
            [
              -98.5178733,
              44.8762957
            ],
            [
              -98.5178732,
              44.8763625
            ],
            [
              -98.5179095,
              44.8763626
            ],
            [
              -98.5183503,
              44.8763631
            ],
            [
              -98.5183505,
              44.8762962
            ],
            [
              -98.5178733,
              44.8762957
            ]
          ]
        ]
      }
    },
    {
      "type": "Feature",
      "properties": {
        "osm_type": "way",
        "osm_id": 1474301453,
        "tags": {
          "building": "retail"
        },
        "earthforge_status": "unverified",
        "earthforge_class": "building"
      },
      "geometry": {
        "type": "Polygon",
        "coordinates": [
          [
            [
              -98.5183496,
              44.8765665
            ],
            [
              -98.5183494,
              44.87671
            ],
            [
              -98.5182152,
              44.8767091
            ],
            [
              -98.5182153,
              44.8766974
            ],
            [
              -98.5178821,
              44.8766953
            ],
            [
              -98.5178849,
              44.876564
            ],
            [
              -98.5183496,
              44.8765665
            ]
          ]
        ]
      }
    },
    {
      "type": "Feature",
      "properties": {
        "osm_type": "way",
        "osm_id": 1474301454,
        "tags": {
          "building": "retail"
        },
        "earthforge_status": "unverified",
        "earthforge_class": "building"
      },
      "geometry": {
        "type": "Polygon",
        "coordinates": [
          [
            [
              -98.5191228,
              44.8760889
            ],
            [
              -98.5187385,
              44.8760868
            ],
            [
              -98.5187397,
              44.8761571
            ],
            [
              -98.519122,
              44.8761581
            ],
            [
              -98.5191228,
              44.8760889
            ]
          ]
        ]
      }
    },
    {
      "type": "Feature",
      "properties": {
        "osm_type": "way",
        "osm_id": 1474301456,
        "tags": {
          "building": "retail"
        },
        "earthforge_status": "unverified",
        "earthforge_class": "building"
      },
      "geometry": {
        "type": "Polygon",
        "coordinates": [
          [
            [
              -98.5187388,
              44.876434
            ],
            [
              -98.5187388,
              44.8764996
            ],
            [
              -98.5190109,
              44.8764995
            ],
            [
              -98.5191517,
              44.8764997
            ],
            [
              -98.519247,
              44.8764996
            ],
            [
              -98.5193147,
              44.8764997
            ],
            [
              -98.5193149,
              44.8764342
            ],
            [
              -98.5191143,
              44.8764339
            ],
            [
              -98.5187388,
              44.876434
            ]
          ]
        ]
      }
    },
    {
      "type": "Feature",
      "properties": {
        "osm_type": "way",
        "osm_id": 1482700963,
        "tags": {
          "building": "school"
        },
        "earthforge_status": "unverified",
        "earthforge_class": "building"
      },
      "geometry": {
        "type": "Polygon",
        "coordinates": [
          [
            [
              -98.5170655,
              44.8779923
            ],
            [
              -98.5170645,
              44.8776844
            ],
            [
              -98.516111,
              44.8776859
            ],
            [
              -98.5161098,
              44.8773144
            ],
            [
              -98.5164112,
              44.8773139
            ],
            [
              -98.5164116,
              44.8774324
            ],
            [
              -98.5172196,
              44.8774313
            ],
            [
              -98.5172187,
              44.877114
            ],
            [
              -98.5168227,
              44.8771145
            ],
            [
              -98.5168227,
              44.8770777
            ],
            [
              -98.5157637,
              44.8770784
            ],
            [
              -98.515764,
              44.8773587
            ],
            [
              -98.5154339,
              44.8773589
            ],
            [
              -98.5154339,
              44.8773198
            ],
            [
              -98.5152359,
              44.8773198
            ],
            [
              -98.5152359,
              44.8774177
            ],
            [
              -98.5151559,
              44.8774176
            ],
            [
              -98.515156,
              44.8772066
            ],
            [
              -98.5145328,
              44.8772064
            ],
            [
              -98.5145325,
              44.8775355
            ],
            [
              -98.5147743,
              44.8775356
            ],
            [
              -98.5151599,
              44.8775358
            ],
            [
              -98.5151598,
              44.8775804
            ],
            [
              -98.5147839,
              44.8775802
            ],
            [
              -98.5147835,
              44.877905
            ],
            [
              -98.5151605,
              44.8779052
            ],
            [
              -98.5151604,
              44.87798
            ],
            [
              -98.5153189,
              44.87798
            ],
            [
              -98.5153189,
              44.8780086
            ],
            [
              -98.5154113,
              44.8780087
            ],
            [
              -98.5154162,
              44.8779948
            ],
            [
              -98.5170655,
              44.8779923
            ]
          ]
        ]
      }
    },
    {
      "type": "Feature",
      "properties": {
        "osm_type": "way",
        "osm_id": 1482700965,
        "tags": {
          "building": "yes",
          "name": "Appels Quick Stop",
          "shop": "convenience"
        },
        "earthforge_status": "unverified",
        "earthforge_class": "building"
      },
      "geometry": {
        "type": "Polygon",
        "coordinates": [
          [
            [
              -98.5199282,
              44.8754735
            ],
            [
              -98.5196664,
              44.8754745
            ],
            [
              -98.5196658,
              44.8753847
            ],
            [
              -98.5199276,
              44.8753838
            ],
            [
              -98.5199282,
              44.8754735
            ]
          ]
        ]
      }
    },
    {
      "type": "Feature",
      "properties": {
        "osm_type": "way",
        "osm_id": 1482700966,
        "tags": {
          "building": "yes",
          "shop": "convenience"
        },
        "earthforge_status": "unverified",
        "earthforge_class": "building"
      },
      "geometry": {
        "type": "Polygon",
        "coordinates": [
          [
            [
              -98.520495,
              44.8754502
            ],
            [
              -98.5204933,
              44.8752792
            ],
            [
              -98.5206905,
              44.8752782
            ],
            [
              -98.5206914,
              44.8753657
            ],
            [
              -98.5208385,
              44.8753649
            ],
            [
              -98.5208382,
              44.8753404
            ],
            [
              -98.5209598,
              44.8753398
            ],
            [
              -98.5209609,
              44.8754479
            ],
            [
              -98.520495,
              44.8754502
            ]
          ]
        ]
      }
    },
    {
      "type": "Feature",
      "properties": {
        "osm_type": "way",
        "osm_id": 1482700967,
        "tags": {
          "building": "fire_station"
        },
        "earthforge_status": "unverified",
        "earthforge_class": "building"
      },
      "geometry": {
        "type": "Polygon",
        "coordinates": [
          [
            [
              -98.5200842,
              44.8761463
            ],
            [
              -98.5195773,
              44.8761476
            ],
            [
              -98.5195764,
              44.875954
            ],
            [
              -98.5200832,
              44.8759527
            ],
            [
              -98.5200842,
              44.8761463
            ]
          ]
        ]
      }
    },
    {
      "type": "Feature",
      "properties": {
        "osm_type": "way",
        "osm_id": 1482700968,
        "tags": {
          "amenity": "bank",
          "atm": "yes",
          "brand": "BMO",
          "brand:wikidata": "Q4835981",
          "building": "yes",
          "drive_through": "yes",
          "name": "BMO"
        },
        "earthforge_status": "unverified",
        "earthforge_class": "building"
      },
      "geometry": {
        "type": "Polygon",
        "coordinates": [
          [
            [
              -98.5170251,
              44.8755757
            ],
            [
              -98.5170172,
              44.8753368
            ],
            [
              -98.5173876,
              44.8753307
            ],
            [
              -98.5173896,
              44.8753929
            ],
            [
              -98.5173073,
              44.8753943
            ],
            [
              -98.5173131,
              44.8755709
            ],
            [
              -98.5170251,
              44.8755757
            ]
          ]
        ]
      }
    },
    {
      "type": "Feature",
      "properties": {
        "osm_type": "way",
        "osm_id": 1482942043,
        "tags": {
          "building": "yes",
          "source": "microsoft/BuildingFootprints"
        },
        "earthforge_status": "unverified",
        "earthforge_class": "building"
      },
      "geometry": {
        "type": "Polygon",
        "coordinates": [
          [
            [
              -98.520883,
              44.876415
            ],
            [
              -98.520654,
              44.876413
            ],
            [
              -98.520654,
              44.876381
            ],
            [
              -98.520465,
              44.876379
            ],
            [
              -98.520465,
              44.87641
            ],
            [
              -98.52043,
              44.87641
            ],
            [
              -98.520428,
              44.876561
            ],
            [
              -98.520495,
              44.876561
            ],
            [
              -98.520492,
              44.876759
            ],
            [
              -98.520409,
              44.876758
            ],
            [
              -98.520408,
              44.876837
            ],
            [
              -98.520792,
              44.87684
            ],
            [
              -98.520794,
              44.876761
            ],
            [
              -98.520772,
              44.876761
            ],
            [
              -98.520773,
              44.876693
            ],
            [
              -98.520993,
              44.876694
            ],
            [
              -98.520995,
              44.87657
            ],
            [
              -98.520881,
              44.876569
            ],
            [
              -98.520883,
              44.876415
            ]
          ]
        ]
      }
    },
    {
      "type": "Feature",
      "properties": {
        "osm_type": "way",
        "osm_id": 1482942044,
        "tags": {
          "building": "yes",
          "source": "microsoft/BuildingFootprints"
        },
        "earthforge_status": "unverified",
        "earthforge_class": "building"
      },
      "geometry": {
        "type": "Polygon",
        "coordinates": [
          [
            [
              -98.520485,
              44.877175
            ],
            [
              -98.520707,
              44.877175
            ],
            [
              -98.520707,
              44.877092
            ],
            [
              -98.520485,
              44.877092
            ],
            [
              -98.520485,
              44.877175
            ]
          ]
        ]
      }
    },
    {
      "type": "Feature",
      "properties": {
        "osm_type": "way",
        "osm_id": 1482942045,
        "tags": {
          "building": "yes",
          "source": "microsoft/BuildingFootprints"
        },
        "earthforge_status": "unverified",
        "earthforge_class": "building"
      },
      "geometry": {
        "type": "Polygon",
        "coordinates": [
          [
            [
              -98.520442,
              44.877257
            ],
            [
              -98.520442,
              44.877326
            ],
            [
              -98.520638,
              44.877326
            ],
            [
              -98.520638,
              44.877257
            ],
            [
              -98.520442,
              44.877257
            ]
          ]
        ]
      }
    },
    {
      "type": "Feature",
      "properties": {
        "osm_type": "way",
        "osm_id": 1482942046,
        "tags": {
          "building": "yes",
          "source": "microsoft/BuildingFootprints"
        },
        "earthforge_status": "unverified",
        "earthforge_class": "building"
      },
      "geometry": {
        "type": "Polygon",
        "coordinates": [
          [
            [
              -98.520474,
              44.877451
            ],
            [
              -98.520651,
              44.877451
            ],
            [
              -98.520651,
              44.877383
            ],
            [
              -98.520474,
              44.877383
            ],
            [
              -98.520474,
              44.877451
            ]
          ]
        ]
      }
    },
    {
      "type": "Feature",
      "properties": {
        "osm_type": "way",
        "osm_id": 1482942047,
        "tags": {
          "building": "yes",
          "source": "microsoft/BuildingFootprints"
        },
        "earthforge_status": "unverified",
        "earthforge_class": "building"
      },
      "geometry": {
        "type": "Polygon",
        "coordinates": [
          [
            [
              -98.520598,
              44.877502
            ],
            [
              -98.520453,
              44.877502
            ],
            [
              -98.520453,
              44.877575
            ],
            [
              -98.520598,
              44.877575
            ],
            [
              -98.520598,
              44.877502
            ]
          ]
        ]
      }
    },
    {
      "type": "Feature",
      "properties": {
        "osm_type": "way",
        "osm_id": 1482942048,
        "tags": {
          "building": "yes",
          "source": "microsoft/BuildingFootprints"
        },
        "earthforge_status": "unverified",
        "earthforge_class": "building"
      },
      "geometry": {
        "type": "Polygon",
        "coordinates": [
          [
            [
              -98.520469,
              44.877643
            ],
            [
              -98.520469,
              44.877717
            ],
            [
              -98.520657,
              44.877717
            ],
            [
              -98.520657,
              44.877643
            ],
            [
              -98.520469,
              44.877643
            ]
          ]
        ]
      }
    },
    {
      "type": "Feature",
      "properties": {
        "osm_type": "way",
        "osm_id": 1482942057,
        "tags": {
          "building": "yes",
          "source": "microsoft/BuildingFootprints"
        },
        "earthforge_status": "unverified",
        "earthforge_class": "building"
      },
      "geometry": {
        "type": "Polygon",
        "coordinates": [
          [
            [
              -98.5196,
              44.877089
            ],
            [
              -98.519598,
              44.877273
            ],
            [
              -98.519776,
              44.877274
            ],
            [
              -98.519777,
              44.877254
            ],
            [
              -98.519883,
              44.877254
            ],
            [
              -98.519882,
              44.877361
            ],
            [
              -98.520109,
              44.877362
            ],
            [
              -98.520113,
              44.877062
            ],
            [
              -98.519977,
              44.877061
            ],
            [
              -98.519977,
              44.877091
            ],
            [
              -98.5196,
              44.877089
            ]
          ]
        ]
      }
    },
    {
      "type": "Feature",
      "properties": {
        "osm_type": "way",
        "osm_id": 1482942058,
        "tags": {
          "building": "yes",
          "source": "microsoft/BuildingFootprints"
        },
        "earthforge_status": "unverified",
        "earthforge_class": "building"
      },
      "geometry": {
        "type": "Polygon",
        "coordinates": [
          [
            [
              -98.518761,
              44.87746
            ],
            [
              -98.518758,
              44.877769
            ],
            [
              -98.519316,
              44.877772
            ],
            [
              -98.519319,
              44.877484
            ],
            [
              -98.519265,
              44.877483
            ],
            [
              -98.519265,
              44.877462
            ],
            [
              -98.518761,
              44.87746
            ]
          ]
        ]
      }
    },
    {
      "type": "Feature",
      "properties": {
        "osm_type": "way",
        "osm_id": 1482942059,
        "tags": {
          "building": "yes",
          "source": "microsoft/BuildingFootprints"
        },
        "earthforge_status": "unverified",
        "earthforge_class": "building"
      },
      "geometry": {
        "type": "Polygon",
        "coordinates": [
          [
            [
              -98.519807,
              44.877701
            ],
            [
              -98.520013,
              44.877701
            ],
            [
              -98.520014,
              44.877624
            ],
            [
              -98.519807,
              44.877624
            ],
            [
              -98.519807,
              44.877701
            ]
          ]
        ]
      }
    },
    {
      "type": "Feature",
      "properties": {
        "osm_type": "way",
        "osm_id": 1482942060,
        "tags": {
          "building": "yes",
          "source": "microsoft/BuildingFootprints"
        },
        "earthforge_status": "unverified",
        "earthforge_class": "building"
      },
      "geometry": {
        "type": "Polygon",
        "coordinates": [
          [
            [
              -98.520013,
              44.877592
            ],
            [
              -98.520013,
              44.877512
            ],
            [
              -98.519846,
              44.877512
            ],
            [
              -98.519846,
              44.877592
            ],
            [
              -98.520013,
              44.877592
            ]
          ]
        ]
      }
    },
    {
      "type": "Feature",
      "properties": {
        "osm_type": "way",
        "osm_id": 1482942063,
        "tags": {
          "building": "yes",
          "source": "microsoft/BuildingFootprints"
        },
        "earthforge_status": "unverified",
        "earthforge_class": "building"
      },
      "geometry": {
        "type": "Polygon",
        "coordinates": [
          [
            [
              -98.52011,
              44.876836
            ],
            [
              -98.52011,
              44.876619
            ],
            [
              -98.519712,
              44.876618
            ],
            [
              -98.519712,
              44.876707
            ],
            [
              -98.519559,
              44.876707
            ],
            [
              -98.519559,
              44.876795
            ],
            [
              -98.519696,
              44.876795
            ],
            [
              -98.519696,
              44.876827
            ],
            [
              -98.519895,
              44.876827
            ],
            [
              -98.519895,
              44.876836
            ],
            [
              -98.52011,
              44.876836
            ]
          ]
        ]
      }
    },
    {
      "type": "Feature",
      "properties": {
        "osm_type": "way",
        "osm_id": 1482942070,
        "tags": {
          "building": "yes",
          "source": "microsoft/BuildingFootprints"
        },
        "earthforge_status": "unverified",
        "earthforge_class": "building"
      },
      "geometry": {
        "type": "Polygon",
        "coordinates": [
          [
            [
              -98.518395,
              44.874637
            ],
            [
              -98.517738,
              44.874637
            ],
            [
              -98.517739,
              44.874919
            ],
            [
              -98.517814,
              44.874919
            ],
            [
              -98.517814,
              44.874995
            ],
            [
              -98.517884,
              44.874995
            ],
            [
              -98.517884,
              44.875054
            ],
            [
              -98.518367,
              44.875053
            ],
            [
              -98.518366,
              44.874922
            ],
            [
              -98.518055,
              44.874922
            ],
            [
              -98.518055,
              44.874839
            ],
            [
              -98.518396,
              44.874838
            ],
            [
              -98.518395,
              44.874637
            ]
          ]
        ]
      }
    }
  ]
}
