{"type": "FeatureCollection", "features": [{"type": "Feature", "properties": {"id": "201006.0081571", "address": null, "street": null, "source_footprint_area_m2": 129.26381651371298, "modeled_footprint_area_m2": 129.263816513713, "public_clearance_clip_m2": -2.842170943040401e-14, "ground_min_navd88_m": 47.26, "median_first_return_navd88_m": 64.44, "source_median_height_m": 12.84, "source_peak_navd88_m": 64.86, "source_height_std_m": 2.0949969318, "skipped_parent_overlap_writes": 0, "interpretation": "Flat height-envelope cap, not inferred roof shape; neutral palette does not assert facade colors. First-return statistics may include vegetation."}, "geometry": {"type": "Polygon", "coordinates": [[[172.80570857645944, 11.215865911915898], [171.83258730638772, 5.146526631899178], [173.13001627998892, 4.937838929705322], [172.57876072998624, 1.4953722734935582], [172.57443600241095, 1.4936239505186677], [170.72019696224015, 1.791325889993459], [170.9274674106855, 3.082205901388079], [169.33584745007101, 3.338106124661863], [169.1884696308989, 2.418992968276143], [169.18458507256582, 2.4172419011592865], [168.17800163594075, 2.5786260599270463], [168.05415547732264, 1.8049380513839424], [168.05036033736542, 1.8034083363600075], [158.5874302732991, 3.32228378765285], [160.17885790253058, 13.240986695047468], [160.97770927136298, 13.113517876714468], [166.91879886423703, 12.160475461743772], [172.80570857645944, 11.215865911915898]]]}}, {"type": "Feature", "properties": {"id": "201006.0040161", "address": null, "street": null, "source_footprint_area_m2": 163.1929794053587, "modeled_footprint_area_m2": 143.4415680263856, "public_clearance_clip_m2": 19.751411378973103, "ground_min_navd88_m": 47.32, "median_first_return_navd88_m": 64.03, "source_median_height_m": 12.15, "source_peak_navd88_m": 65.14, "source_height_std_m": 3.6491198481, "skipped_parent_overlap_writes": 0, "interpretation": "Flat height-envelope cap, not inferred roof shape; neutral palette does not assert facade colors. First-return statistics may include vegetation."}, "geometry": {"type": "Polygon", "coordinates": [[[161.56611007463653, -8.51931311795488], [161.54654410015792, -8.650006113573909], [165.55037778324913, -9.274540820159018], [165.53955783997662, -9.343819723464549], [166.6168548548594, -9.515962798614055], [166.84054901020136, -8.245378625113517], [177.292492739507, -10.0865339320153], [176.09774179931264, -17.179485914297402], [168.66059729317203, -15.868610055651516], [168.31542813940905, -18.083433414809406], [168.3118090747157, -18.08496422879398], [158.19022048798863, -16.504769555690654], [158.19942145712355, -16.44290731993309], [158.27297891131533, -15.948347615818417], [158.3097576384109, -15.701067763762811], [158.3465363655067, -15.45378791170608], [158.3833150926025, -15.206508059649291], [158.42009381969828, -14.95922820759256], [158.45687254679407, -14.711948355535771], [158.49365127388987, -14.46466850347904], [158.53043000098566, -14.217388651422251], [158.56720872808145, -13.97010879936552], [158.60398745517725, -13.722828947308727], [158.67754490936903, -13.228269243194053], [158.7143236364646, -12.980989391138447], [158.7511023635604, -12.733709539081715], [158.78788109065619, -12.486429687024927], [158.82465981775198, -12.239149834968195], [158.86143854484777, -11.991869982911407], [158.89821727194357, -11.744590130854675], [158.93499599903936, -11.497310278797887], [158.97177472613515, -11.250030426741155], [159.00855345323095, -11.00275057468436], [159.0453321803269, -10.75547072262642], [159.0821109074225, -10.508190870570871], [159.1188896345183, -10.260911018514083], [159.1556683616141, -10.013631166457351], [159.19244708870988, -9.766351314400563], [159.22922581580568, -9.519071462343831], [159.26600454290147, -9.271791610287043], [159.30278326999726, -9.024511758230311], [159.33956199709306, -8.777231906173522], [159.37634072418885, -8.52995205411679], [159.41311945128464, -8.282672202059999], [159.42547710586393, -8.199586156472504], [161.56611007463653, -8.51931311795488]]]}}, {"type": "Feature", "properties": {"id": "201006.0130220", "address": null, "street": null, "source_footprint_area_m2": 99.56998347251113, "modeled_footprint_area_m2": 88.45704086730707, "public_clearance_clip_m2": 11.112942605204054, "ground_min_navd88_m": 48.31, "median_first_return_navd88_m": 62.49, "source_median_height_m": 11.57, "source_peak_navd88_m": 64.65, "source_height_std_m": 1.8734292245, "skipped_parent_overlap_writes": 0, "interpretation": "Flat height-envelope cap, not inferred roof shape; neutral palette does not assert facade colors. First-return statistics may include vegetation."}, "geometry": {"type": "Polygon", "coordinates": [[[158.90259725844953, 0.7202230193652213], [159.3611485240981, 0.6438045208342373], [159.58364719280507, 1.9628832363523543], [170.7306808225112, 0.09665890131145716], [169.42548249813262, -7.697279441636056], [169.4219514640281, -7.69881080230698], [165.08904937957413, -6.972809613216668], [164.85514060489368, -8.272067308891565], [164.85231591551565, -8.273270210251212], [159.55648359304922, -7.318770877431146], [159.5602343596678, -7.293552793832987], [159.59701308676358, -7.0462729417761985], [159.63379181385937, -6.798993089719467], [159.67057054095517, -6.551713237662678], [159.70734926805096, -6.304433385605947], [159.74412799514675, -6.057153533549158], [159.78090672224255, -5.8098736814924266], [159.81768544933834, -5.562593829435631], [159.8544641764343, -5.315313977377691], [159.8912429035299, -5.068034125322143], [159.9280216306257, -4.820754273265354], [159.9648003577215, -4.573474421208623], [160.00157908481728, -4.326194569151834], [160.03835781191307, -4.078914717095103], [160.07513653900887, -3.831634865038314], [160.11191526610466, -3.584355012981582], [160.14869399320045, -3.337075160924794], [160.18547272029625, -3.089795308868062], [160.22225144739204, -2.8425154568112694], [160.25903017448803, -2.595235604753343], [160.2958089015836, -2.3479557526977644], [160.44292380996677, -1.358836344470688], [160.47970253706256, -1.1115564924139585], [160.55325999125415, -0.6169967883004384], [160.55567421683295, -0.5925820247171044], [160.5556837519474, -0.5680481894063141], [160.55328850476923, -0.5436315566136702], [160.5485115428381, -0.5195672718604554], [160.54139887090875, -0.49608708736371904], [160.53201898790005, -0.47341713013573933], [160.52046222721293, -0.45177572425728096], [160.5068398867704, -0.4313712882973493], [160.49128315715762, -0.4124003281284377], [160.47394185818496, -0.39504554446755463], [160.45498299604122, -0.3794740733684442], [160.43458915493284, -0.3658358766100227], [160.41295673869809, -0.3542622974824705], [160.39029407933077, -0.34486479587954794], [160.3668194306293, -0.33773387487888795], [160.3427588662932, -0.33293820914788497], [158.7652470628538, -0.09830980886975602], [158.90259725844953, 0.7202230193652213]]]}}, {"type": "Feature", "properties": {"id": "201006.0025902", "address": "2233;2235;2237", "street": "Leavenworth Street", "source_footprint_area_m2": 194.10254824784064, "modeled_footprint_area_m2": 194.10254824784064, "public_clearance_clip_m2": 0.0, "ground_min_navd88_m": 54.26, "median_first_return_navd88_m": 67.33, "source_median_height_m": 12.65, "source_peak_navd88_m": 69.69, "source_height_std_m": 0.8585503502999999, "skipped_parent_overlap_writes": 0, "interpretation": "Flat height-envelope cap, not inferred roof shape; neutral palette does not assert facade colors. First-return statistics may include vegetation."}, "geometry": {"type": "Polygon", "coordinates": [[[140.93622509320267, 9.763016122858971], [140.18083085294347, 9.885108549613506], [129.82963726657908, 11.666450462769717], [130.22444040630944, 14.105981084518135], [129.11232849000953, 14.286435677669942], [128.91775728832, 13.082907501142472], [128.91422694385983, 13.081487072631717], [127.22314842254855, 13.355861777439713], [127.02610667294357, 12.137259180657566], [120.07481242250651, 13.16590600181371], [117.93783128587529, 13.512289156671613], [119.1975361983059, 21.28887608135119], [119.20088909426704, 21.29007570957765], [126.05738428712357, 20.178249476477504], [126.24646530067548, 21.3484147018753], [129.39331185817719, 20.843847424723208], [132.21658537187614, 20.39033484365791], [132.21540777606424, 20.38501637848094], [131.99759058491327, 19.039500816725194], [134.51266704348382, 18.632176585495472], [134.73064758395776, 19.975582943763584], [134.73309012153186, 19.986108374781907], [140.57963352301158, 19.046988170593977], [140.5768001570832, 19.03025174466893], [141.48327171290293, 19.064329656772316], [142.41166637139395, 18.91486389003694], [140.93940261169337, 9.764327787794173], [140.93622509320267, 9.763016122858971]]]}}, {"type": "Feature", "properties": {"id": "201006.0026522", "address": "2320;2322", "street": "Hyde Street", "source_footprint_area_m2": 191.94766488566478, "modeled_footprint_area_m2": 191.94766488566484, "public_clearance_clip_m2": -5.684341886080802e-14, "ground_min_navd88_m": 78.88, "median_first_return_navd88_m": 92.93, "source_median_height_m": 12.78, "source_peak_navd88_m": 95.22, "source_height_std_m": 0.7965885923, "skipped_parent_overlap_writes": 0, "interpretation": "Flat height-envelope cap, not inferred roof shape; neutral palette does not assert facade colors. First-return statistics may include vegetation."}, "geometry": {"type": "Polygon", "coordinates": [[[18.449866196373478, -43.35125867417082], [20.827242556377314, -43.77211717283353], [19.685982505208813, -50.22710349643603], [19.681393048842438, -50.228961208835244], [12.588308054022491, -48.974286986049265], [13.299899547360837, -44.950186546426266], [11.177984960842878, -44.575298331677914], [10.44646806572564, -48.59006601013243], [4.531225381768309, -47.5197961893864], [4.27603120659478, -47.47327517485246], [5.148975885589607, -42.68592451279983], [4.073465135646984, -42.49572812952101], [4.656406122725457, -39.1986867710948], [4.659847698523663, -39.19737669220194], [5.758750311215408, -39.39182369830087], [7.368059597793035, -39.67642834922299], [7.734386689029634, -37.60574864177033], [6.122786065330729, -37.32146256137639], [6.7579030020860955, -33.73171570478007], [6.761079792864621, -33.73051493614912], [7.8841675377916545, -33.929106743540615], [19.744254221441224, -36.02656691335142], [18.449866196373478, -43.35125867417082]]]}}, {"type": "Feature", "properties": {"id": "201006.0031502", "address": null, "street": null, "source_footprint_area_m2": 178.54154715892895, "modeled_footprint_area_m2": 178.54154715892895, "public_clearance_clip_m2": 0.0, "ground_min_navd88_m": 53.3, "median_first_return_navd88_m": 70.27, "source_median_height_m": 10.96, "source_peak_navd88_m": 71.81, "source_height_std_m": 2.3150423689, "skipped_parent_overlap_writes": 0, "interpretation": "Flat height-envelope cap, not inferred roof shape; neutral palette does not assert facade colors. First-return statistics may include vegetation."}, "geometry": {"type": "Polygon", "coordinates": [[[125.91181370511185, -48.51406476087868], [125.63957430596929, -49.94733938900754], [129.66104728495702, -50.62045368924737], [128.57768156169914, -57.095536577980965], [128.57344421872403, -57.09739642124623], [127.78923626570031, -56.96624934114516], [127.25982523686253, -60.11349518503994], [127.25655833340716, -60.11502820625901], [125.63966052536853, -60.66894368361682], [124.92628817772493, -64.80076072225347], [124.92187407927122, -64.80273042153567], [119.0500618701335, -63.78845804557204], [118.81825252203271, -65.0064007434994], [116.5610226582503, -64.59103245055303], [116.85320253798272, -62.95228370791301], [116.85682157112751, -62.95075287204236], [115.37741504004225, -62.68790536839515], [116.9377092194045, -53.843257803004235], [118.07487259653863, -47.02610407304019], [125.91181370511185, -48.51406476087868]]]}}, {"type": "Feature", "properties": {"id": "201006.0032105", "address": "1040", "street": "Lombard Street", "source_footprint_area_m2": 177.20842379397496, "modeled_footprint_area_m2": 177.20842379397493, "public_clearance_clip_m2": 2.842170943040401e-14, "ground_min_navd88_m": 65.54, "median_first_return_navd88_m": 79.24, "source_median_height_m": 12.1, "source_peak_navd88_m": 82.33, "source_height_std_m": 1.3086216085000002, "skipped_parent_overlap_writes": 0, "interpretation": "Flat height-envelope cap, not inferred roof shape; neutral palette does not assert facade colors. First-return statistics may include vegetation."}, "geometry": {"type": "Polygon", "coordinates": [[[83.10188342130277, -45.64850639086217], [74.16384860570543, -44.062424830161035], [75.39605844544712, -37.11770491860807], [75.33441656280775, -37.106115262489766], [76.0636314372532, -33.25444104569033], [76.0670730296988, -33.25313099846244], [76.08123057859484, -33.25577097572386], [76.73455983004533, -29.57371754432097], [76.15230069425888, -29.471680684015155], [76.68692521739285, -26.417554871644825], [76.68966116209049, -26.416462344583124], [87.45953890646342, -28.30818949220702], [86.95482434425503, -31.181312709581107], [87.0394230352249, -31.196262897457927], [86.61343843571376, -33.59832101594657], [86.6095546069555, -33.599961172789335], [85.33310759416781, -33.373110104352236], [84.74963944137562, -36.6647062334232], [86.02898830384947, -36.89201908232644], [85.22593358031008, -41.41872165026143], [85.22204975318164, -41.42036180617288], [83.89705976448022, -41.18510938901454], [83.10550245526247, -45.646975540556014], [83.10188342130277, -45.64850639086217]]]}}, {"type": "Feature", "properties": {"id": "201006.0032957", "address": "2239;2241;2243", "street": "Leavenworth Street", "source_footprint_area_m2": 175.38961581391172, "modeled_footprint_area_m2": 175.3378947494737, "public_clearance_clip_m2": 0.05172106443802704, "ground_min_navd88_m": 53.85, "median_first_return_navd88_m": 66.26, "source_median_height_m": 11.99, "source_peak_navd88_m": 68.48, "source_height_std_m": 0.9691920403000001, "skipped_parent_overlap_writes": 0, "interpretation": "Flat height-envelope cap, not inferred roof shape; neutral palette does not assert facade colors. First-return statistics may include vegetation."}, "geometry": {"type": "Polygon", "coordinates": [[[138.87631481105927, 2.1114662806503475], [138.79988078889437, 1.6561428029090166], [138.79670396680012, 1.6549420850351453], [129.77525722666178, 3.170591947156936], [130.01000808225945, 4.577692646998912], [126.71890935511328, 5.130313616711646], [126.48364189488348, 3.7249913145788014], [126.48046507383697, 3.723790593445301], [118.67415309662465, 5.034588528331369], [118.17221943242475, 5.948977941647172], [119.21951459604315, 12.187731977552176], [120.07481242250651, 13.16590600181371], [127.02610667294357, 12.137259180657566], [129.82963726657908, 11.666450462769717], [140.18083085294347, 9.885108549613506], [140.11417346971575, 9.4870874742046], [140.94019373727497, 8.958130569197237], [140.58153248461895, 6.823499080725014], [140.57844300288707, 6.8221868658438325], [139.64771040028427, 6.709038713481277], [139.4604552143719, 5.592009378131479], [140.31901235843543, 4.746076078619808], [139.98027643188834, 2.7291537281125784], [139.93295644298468, 2.702677297584233], [139.77382294833023, 2.7263457336618817], [139.7494081847469, 2.728759959240661], [139.7248743494361, 2.728769494355142], [139.70045771664346, 2.726374247176961], [139.67639343189026, 2.721597285245818], [139.6529132473935, 2.7144846133164644], [139.63024329016554, 2.705104730307761], [139.60860188428708, 2.6935479696206466], [139.58819744832715, 2.6799256291781073], [139.56922648815822, 2.664368899565333], [139.55187170449736, 2.6470276005926685], [139.53630023339824, 2.6280687384489383], [139.52266203663982, 2.607674897340555], [139.51108845751227, 2.5860424811058], [139.50169095590934, 2.5633798217384958], [139.4945600349087, 2.539905173037019], [139.4897643691777, 2.515844608700912], [139.47984509909293, 2.449152913996973], [138.87631481105927, 2.1114662806503475]]]}}, {"type": "Feature", "properties": {"id": "201006.0033339", "address": "1047;1049", "street": "Lombard Street", "source_footprint_area_m2": 174.6629283046757, "modeled_footprint_area_m2": 174.66292830467572, "public_clearance_clip_m2": -2.842170943040401e-14, "ground_min_navd88_m": 61.87, "median_first_return_navd88_m": 75.26, "source_median_height_m": 10.14, "source_peak_navd88_m": 77.02, "source_height_std_m": 1.6377530755999998, "skipped_parent_overlap_writes": 0, "interpretation": "Flat height-envelope cap, not inferred roof shape; neutral palette does not assert facade colors. First-return statistics may include vegetation."}, "geometry": {"type": "Polygon", "coordinates": [[[84.53154620947316, -5.11555851995945], [83.4443216053769, -4.925611840561032], [83.5063988979673, -4.5699463109485805], [74.07796159212012, -3.0671381377615035], [75.74829246371519, 7.423833731096238], [77.54415435576811, 7.138277403078973], [78.24668557732366, 11.5542076039128], [77.53320535144303, 11.66360677080229], [77.92439030471724, 14.20335365878418], [78.82055349543225, 14.066411400679499], [78.82670222758316, 14.10664948867634], [78.82979101198725, 14.107850776053965], [83.44076187442988, 13.400581586174667], [83.43433866521809, 13.358680897857994], [87.08986811107025, 12.797930245287716], [86.69964599527884, 10.257733938284218], [86.66674745583441, 10.26215480035171], [86.49313078762498, 9.171113764867187], [84.53154620947316, -5.11555851995945]]]}}, {"type": "Feature", "properties": {"id": "201006.0123176", "address": null, "street": null, "source_footprint_area_m2": 104.62842996554095, "modeled_footprint_area_m2": 87.29625664554723, "public_clearance_clip_m2": 17.332173319993714, "ground_min_navd88_m": 52.8, "median_first_return_navd88_m": 67.28, "source_median_height_m": 12.76, "source_peak_navd88_m": 68.87, "source_height_std_m": 1.4015700035, "skipped_parent_overlap_writes": 0, "interpretation": "Flat height-envelope cap, not inferred roof shape; neutral palette does not assert facade colors. First-return statistics may include vegetation."}, "geometry": {"type": "Polygon", "coordinates": [[[154.77588469604962, -40.918776008766145], [155.4600151773775, -42.00805661873892], [155.468928762828, -41.76423505414277], [155.4725485035451, -41.76259328564629], [164.76875208725687, -43.36963466182351], [164.65463333087973, -43.72663979744539], [164.5411448267987, -43.86939651938155], [165.13933740206994, -43.97131701139733], [164.13900727627333, -49.64759960770607], [162.23414798476733, -49.32328794384375], [161.92482875101268, -51.139787847176194], [161.9213857719442, -51.141319760587066], [161.66116148070432, -51.09687064634636], [152.91196386395413, -49.60548655108165], [152.9409165002156, -49.42831415110831], [152.9812354607176, -49.181586808836244], [153.02155442121943, -48.934859466565385], [153.061873381721, -48.68813212429564], [153.102192342223, -48.44140478202364], [153.1425113027246, -48.19467743975389], [153.18283026322663, -47.94795009748182], [153.22314922372846, -47.70122275521097], [153.26346818423002, -47.45449541294128], [153.30378714473207, -47.207768070669154], [153.34410610523364, -46.961040728399475], [153.38442506573566, -46.714313386127436], [153.42474402623745, -46.467586043856514], [153.46506298673904, -46.220858701586856], [153.50538194724106, -45.97413135931474], [153.58601986824445, -45.48067667477415], [153.62633882874644, -45.233949332502185], [153.66665778924806, -44.9872219902324], [153.70697674975008, -44.740494647960325], [153.78761467075347, -44.24703996341978], [153.8279336312555, -44.00031262114767], [153.86825259175708, -43.75358527887801], [153.9085715522591, -43.506857936605904], [153.9892094732625, -43.01340325206537], [154.02952843376454, -42.766675909793285], [154.0698473942661, -42.51994856752356], [154.11016635476815, -42.27322122525146], [154.1504853152699, -42.02649388298067], [154.1908042757715, -41.779766540710945], [154.23112323627353, -41.53303919843883], [154.31176115727692, -41.039584513898234], [154.3474911734494, -40.82093870012196], [154.77588469604962, -40.918776008766145]]]}}, {"type": "Feature", "properties": {"id": "201006.0046886", "address": "1079", "street": "Lombard Street", "source_footprint_area_m2": 155.2703935591524, "modeled_footprint_area_m2": 153.12237815520925, "public_clearance_clip_m2": 2.1480154039431625, "ground_min_navd88_m": 80.03, "median_first_return_navd88_m": 90.3, "source_median_height_m": 8.92, "source_peak_navd88_m": 94.48, "source_height_std_m": 0.9525479183000001, "skipped_parent_overlap_writes": 26, "interpretation": "Flat height-envelope cap, not inferred roof shape; neutral palette does not assert facade colors. First-return statistics may include vegetation."}, "geometry": {"type": "Polygon", "coordinates": [[[30.276841269340366, 3.6824809540994465], [27.236257770680822, 4.187126911710948], [29.809445409104228, 19.695055146235973], [30.9868895028485, 26.048291912768036], [31.944659722968936, 26.43223416386172], [33.60738848207984, 26.156723823864013], [34.02790077601094, 25.469524754676968], [36.69708980212454, 25.026211560238153], [37.4030871730065, 23.85392268327996], [37.400351906428114, 23.852941090706736], [37.35065666993614, 23.860350923147053], [36.87235531641636, 20.4042193768546], [34.23867066219034, 3.799669412518044], [33.87638041661269, 3.6879109154315897], [33.853319762429585, 3.6795374218582633], [33.83119089749411, 3.668943909568044], [33.81020693487247, 3.65623239987529], [33.79056996159571, 3.6415253115671593], [33.772469092451146, 3.6249642819437726], [33.75607864870358, 3.6067088027735825], [33.741556479286224, 3.5869346843004575], [33.72904244062921, 3.5658323620949273], [33.71865704976565, 3.543605063055533], [33.710500323686816, 3.5204668482227026], [33.70465081612376, 3.4966405512539103], [33.70116486103197, 3.472355632413745], [33.7000760300646, 3.447845968746124], [33.70139480925909, 3.423347601710512], [33.705108498050876, 3.3990964639736307], [33.711181331586786, 3.3753261072489087], [33.764626641185046, 3.202071143697034], [33.5786988488404, 3.0437970835533132], [30.48552310275763, 3.494675285889027], [30.367602376891874, 3.5119357658314128], [30.276841269340366, 3.6824809540994465]]]}}, {"type": "Feature", "properties": {"id": "201006.0009299", "address": "2310", "street": "Hyde Street", "source_footprint_area_m2": 401.47598863890545, "modeled_footprint_area_m2": 373.8255653977821, "public_clearance_clip_m2": 27.65042324112335, "ground_min_navd88_m": 80.25, "median_first_return_navd88_m": 95.9, "source_median_height_m": 13.87, "source_peak_navd88_m": 101.45, "source_height_std_m": 2.2718904774, "skipped_parent_overlap_writes": 1232, "interpretation": "Flat height-envelope cap, not inferred roof shape; neutral palette does not assert facade colors. First-return statistics may include vegetation."}, "geometry": {"type": "Polygon", "coordinates": [[[28.895744754117914, -16.746897101402283], [27.01581415697001, -29.75390130467713], [26.3888988426188, -29.641049928963184], [25.784121847362258, -33.291342871729285], [25.779179556993768, -33.29330934304744], [22.13925287569873, -32.68952140491456], [21.556050574756227, -36.21168576972559], [21.551108287181705, -36.21365224150941], [19.744254221441224, -36.02656691335142], [7.8841675377916545, -33.929106743540615], [8.054107853211462, -32.903726131655276], [5.996774634579197, -32.56274848245084], [6.385773319983855, -30.21526821376756], [6.389745857915841, -30.213517616968602], [8.68717939441558, -30.593377879820764], [8.755581019213423, -29.899230297654867], [8.75152182567399, -29.900758448056877], [7.372038985602558, -29.565321378409863], [7.8540972712086425, -26.588914814468442], [7.86936729358251, -26.587622720979663], [7.893493297444737, -26.583167936628517], [7.917066482781175, -26.576369841375488], [7.939859826930622, -26.56729390459407], [7.961653817528808, -26.556027532516886], [7.982238566532467, -26.542679226465864], [8.001415831555923, -26.527377537925197], [8.019000925053641, -26.510269830520294], [8.034824492962251, -26.491520860825478], [8.048734145672746, -26.47131119166815], [8.060595925625739, -26.449835453210014], [8.070295597395972, -26.42730046855226], [8.077739747841918, -26.40392326191602], [8.082856685725396, -26.37992896858048], [8.163020055816055, -25.886396969520927], [8.20310174086138, -25.639630969991163], [8.36342848104269, -24.65256697187209], [8.403510166088026, -24.405800972342284], [8.443591851133348, -24.15903497281252], [8.644000276359995, -22.925204975163656], [8.684081961405314, -22.67843897563391], [8.724163646450645, -22.43167297610412], [8.844408701586634, -21.691374977514798], [8.884490386631956, -21.44460897798503], [9.044817126813264, -20.45754497986597], [9.124980496903925, -19.96401298080641], [9.285307237085242, -18.976948982687315], [9.325388922130564, -18.730182983157547], [9.405552292221216, -18.236650984098027], [9.445633977266548, -17.98988498456824], [9.525797347357209, -17.496352985508686], [9.565879032402531, -17.249586985978922], [9.726205772583842, -16.262522987859846], [9.766287457629172, -16.01575698833006], [9.966695882855808, -14.78192699068123], [10.006777567901146, -14.535160991151422], [10.046859252946467, -14.288394991621665], [10.086940937991793, -14.041628992091905], [10.127022623037124, -13.794862992562118], [10.16710430808245, -13.54809699303235], [10.19076538316086, -13.402425751040665], [17.333629130174046, -14.679577823098787], [17.38447563127447, -14.717131712549504], [17.672611095432288, -14.929940994085756], [17.695538623323642, -14.945003551295443], [17.719978453882685, -14.957463360569632], [18.027504556794476, -15.093535173033692], [18.261949030450033, -15.197270381688956], [18.57844711595172, -15.337312048811993], [18.597534163233647, -15.344836931086263], [18.61717396062721, -15.350771371710612], [18.637234233554217, -15.355075402063436], [18.851778658267346, -15.39197091201785], [18.975875171164276, -15.44688019376815], [19.292373256665968, -15.586921860891195], [19.311460303947893, -15.594446743165467], [19.33110010134146, -15.600381183789814], [19.351160374268467, -15.60468521414264], [19.565704798981596, -15.641580724097052], [19.771854923724675, -15.732796464315141], [19.7909419710066, -15.740321346589413], [19.810581768400166, -15.74625578721376], [19.830642041327174, -15.750559817566586], [20.164108263931436, -15.807906478296676], [20.29022365944348, -15.829594722289691], [20.496373784186556, -15.920810462507777], [20.51546083146848, -15.928335344782049], [20.535100628862047, -15.934269785406396], [20.555160901789055, -15.938573815759222], [20.888627124393334, -15.995920476489315], [21.222093346997607, -16.053267137219407], [21.24243898896553, -16.05591176953734], [21.26293297151347, -16.056879192148635], [21.283437267102613, -16.05616288943527], [21.50821602883843, -16.03905460291581], [21.722760453551565, -16.075950112870224], [21.74310609551949, -16.07859474518816], [21.76360007806743, -16.079562167799452], [21.78410437365657, -16.078845865086087], [22.008883135392388, -16.061737578566632], [22.134998530904422, -16.083425822559644], [22.468464753508687, -16.140772483289737], [22.488810395476616, -16.14341711560767], [22.509304378024556, -16.144384538218965], [22.529808673613697, -16.1436682355056], [22.87490692586794, -16.11740223185233], [23.13053683901873, -16.097945812734455], [23.897426578471112, -16.039576555380837], [24.23274210010908, -16.014055131673793], [24.2599402427147, -16.010475578111073], [24.28658244573208, -16.003937598049575], [24.454535343927418, -15.95280386351284], [28.895744754117914, -16.746897101402283]]]}}, {"type": "Feature", "properties": {"id": "201006.0013919", "address": null, "street": null, "source_footprint_area_m2": 286.6333750181735, "modeled_footprint_area_m2": 286.6333750181735, "public_clearance_clip_m2": 0.0, "ground_min_navd88_m": 82.43, "median_first_return_navd88_m": 97.25, "source_median_height_m": 12.12, "source_peak_navd88_m": 99.92, "source_height_std_m": 1.4964060383, "skipped_parent_overlap_writes": 0, "interpretation": "Flat height-envelope cap, not inferred roof shape; neutral palette does not assert facade colors. First-return statistics may include vegetation."}, "geometry": {"type": "Polygon", "coordinates": [[[-27.607277289498597, -22.41277667041868], [-27.26102497021202, -22.45497976988554], [-26.00023644324392, -15.0340979215689], [-24.8670495536644, -8.399532387964427], [-13.19321732793469, -10.413793364074081], [-14.442940104752779, -17.652666501700878], [-14.446382375084795, -17.654087539296597], [-15.432142391102389, -17.485088320914656], [-17.045159201021306, -26.832163780461997], [-16.312938400078565, -26.95720467856154], [-17.39681374945212, -33.30559201911092], [-17.400344736641273, -33.3071234584786], [-29.27689154294785, -31.27818450331688], [-29.24247804027982, -31.081010810565203], [-31.977168748620898, -30.597923596855253], [-31.3850801467197, -27.243240628857166], [-28.58609768084716, -27.73671284178272], [-28.318947410560213, -26.126208406873047], [-28.315858657471836, -26.125007079914212], [-28.311022625886835, -26.069227206520736], [-28.371979637653567, -26.04654717911035], [-28.38314890465699, -26.04470260301605], [-28.304211929556914, -25.581737413536757], [-29.464814304723404, -25.384582101367414], [-29.430548625648953, -25.18285837676376], [-31.014050217927434, -24.90973844844848], [-30.49709377682302, -21.915744756814092], [-30.49435784306843, -21.914652194827795], [-27.607277289498597, -22.41277667041868]]]}}, {"type": "Feature", "properties": {"id": "201006.0015325", "address": "1025", "street": "Lombard Street", "source_footprint_area_m2": 265.0858701795756, "modeled_footprint_area_m2": 248.3819232113429, "public_clearance_clip_m2": 16.703946968232685, "ground_min_navd88_m": 56.14, "median_first_return_navd88_m": 73.18, "source_median_height_m": 12.61, "source_peak_navd88_m": 75.71, "source_height_std_m": 1.6319156473999998, "skipped_parent_overlap_writes": 1664, "interpretation": "Flat height-envelope cap, not inferred roof shape; neutral palette does not assert facade colors. First-return statistics may include vegetation."}, "geometry": {"type": "Polygon", "coordinates": [[[94.99111527460627, -3.342216725461185], [96.02574609569274, 2.5902746482752264], [96.82189486955758, 2.4529539556242526], [97.23893421224784, 4.888131448067725], [96.42554847348947, 5.02844420587644], [97.53339046461042, 11.492615618277341], [97.53656728425995, 11.493816350586712], [111.51793124096002, 9.093993365298957], [108.31431013983459, -9.594817438790997], [108.29185643064878, -9.589021714683552], [108.0504801677386, -9.526717967256502], [107.80910390482843, -9.464414219829447], [107.56772764191825, -9.402110472402393], [107.32635137900809, -9.339806724975338], [106.84359885318773, -9.215199230121227], [106.60222259027758, -9.152895482694179], [106.3608463273674, -9.090591735267118], [106.11947006445722, -9.028287987840068], [105.87809380154705, -8.965984240413013], [105.63671753863687, -8.90368049298596], [105.39534127572671, -8.841376745558904], [105.15396501281653, -8.77907299813185], [104.91258874990636, -8.716769250704795], [104.6712124869962, -8.654465503277745], [104.42983622408602, -8.592161755850686], [104.35770471550578, -8.573543258580354], [104.42540253512561, -8.177590737119317], [102.67064144490219, -7.876310172542136], [102.66746311587924, -7.873893251098336], [102.46132909098094, -7.7302548292297475], [102.25739191706464, -7.5249786477644705], [102.24082996796524, -7.509744884473337], [102.22296530408545, -7.496062067276448], [101.71165797363729, -7.139772618837958], [101.48285638078693, -6.9803389701025775], [101.25405478793658, -6.8209053213672135], [100.9598158112093, -6.615873559676294], [100.93652941031922, -6.601474377529002], [100.91180809463684, -6.589707922504004], [100.69949312667154, -6.5025713469439514], [100.49325614895119, -6.358861185434631], [100.46996974806112, -6.344462003287339], [100.44524843237873, -6.332695548262343], [100.23293346441345, -6.245558972702289], [100.02669648669307, -6.10184881119295], [100.003410085803, -6.087449629045658], [99.97868877012061, -6.075683174020658], [99.66714570652967, -5.947822213670284], [99.4293876371219, -5.8502434881639935], [99.19162956771416, -5.752664762657714], [98.87107432860732, -5.621105098818226], [98.85183942623172, -5.61411631815852], [98.83209734441951, -5.608724219288136], [98.81198037865913, -5.604964935698996], [98.59580903447004, -5.573663731598539], [98.38660171323438, -5.487802571034734], [98.36736681085878, -5.480813790375028], [98.34762472904657, -5.475421691504643], [98.32750776328618, -5.471662407915506], [97.99221793217033, -5.423113070925752], [97.86462187313195, -5.404637401537859], [97.65541455189631, -5.318776240974054], [97.63617964952071, -5.311787460314348], [97.6164375677085, -5.306395361443962], [97.59632060194811, -5.302636077854825], [97.01431622486712, -5.218362938587874], [96.67902639375127, -5.1698136015981175], [96.65866935170061, -5.167712324972814], [96.638208649815, -5.16728313637028], [96.61778139919426, -5.168528911865915], [96.39281216945263, -5.191522124373267], [96.17664082526358, -5.160220920272814], [96.15628378321291, -5.1581196436475105], [96.1358230813273, -5.1576904550449765], [96.11539583070656, -5.15893623054061], [95.89042660096489, -5.181929443047964], [95.67425525677584, -5.1506282389475135], [95.65389821472519, -5.14852696232221], [95.63343751283958, -5.148097773719676], [95.61301026221884, -5.14934354921531], [95.26830404063163, -5.184574604656369], [95.01263301810907, -5.210705725608262], [94.75696199558652, -5.236836846560155], [94.66531933807524, -5.2462032790332325], [94.99111527460627, -3.342216725461185]]]}}, {"type": "Feature", "properties": {"id": "201006.0016872", "address": null, "street": null, "source_footprint_area_m2": 246.81406167485244, "modeled_footprint_area_m2": 245.95200543897337, "public_clearance_clip_m2": 0.8620562358790664, "ground_min_navd88_m": 72.31, "median_first_return_navd88_m": 87.48, "source_median_height_m": 11.98, "source_peak_navd88_m": 106.28, "source_height_std_m": 6.441842983, "skipped_parent_overlap_writes": 352, "interpretation": "Flat height-envelope cap, not inferred roof shape; neutral palette does not assert facade colors. First-return statistics may include vegetation."}, "geometry": {"type": "Polygon", "coordinates": [[[50.96980038576294, -21.23046279605478], [50.185580130899325, -25.718451517168432], [53.21089708106592, -26.19860140234232], [53.33748592704069, -25.420934517867863], [57.28068396996241, -26.055913193151355], [56.05092008935753, -33.6857920056209], [56.04809611465316, -33.686883992515504], [53.06355200090911, -33.205322118941694], [52.741474122856744, -33.15483336849138], [46.849428798421286, -32.27485268563032], [46.29131220839918, -35.98024556552991], [35.8940661837114, -34.16433910280466], [38.38571450172458, -18.461736337747425], [47.025543076922304, -19.970430838514112], [47.19752329151921, -20.046527336621374], [47.43196776517478, -20.15026254527664], [47.6664122388303, -20.253997753931884], [47.98291032433199, -20.39403942105493], [48.00199737161392, -20.4015643033292], [48.021637169007484, -20.40749874395355], [48.041697441934495, -20.411802774306373], [48.37516366453875, -20.469149435036464], [48.501279060050805, -20.490837679029482], [48.70742918479389, -20.582053419247565], [48.72651623207581, -20.589578301521833], [48.746156029469375, -20.595512742146184], [48.76621630239638, -20.599816772499008], [49.09968252500066, -20.657163433229105], [49.276790943284006, -20.68762101989686], [49.282642797859786, -20.702723863544158], [49.293706353794185, -20.72462150944644], [49.30686298031407, -20.745329294083902], [49.32198597191392, -20.764647790170457], [49.338929685917556, -20.78239095002823], [49.35753094509674, -20.79838789732839], [49.3776106091571, -20.812484572723616], [49.39897529995708, -20.824545217523827], [49.42141926384513, -20.834453681126575], [49.44472635317991, -20.84211453961085], [49.46867210795016, -20.8474540147216], [50.158545223479685, -20.96609247589501], [50.18289903297689, -20.96905914556806], [50.207426356702456, -20.969624439152714], [50.2318909831209, -20.96778291256273], [50.25605730450608, -20.96355230070585], [50.279692585972406, -20.956973346686947], [50.302569206838996, -20.948109409429637], [50.32446685274128, -20.93704585349524], [50.34517463737875, -20.92388922697535], [50.3644931334653, -20.908766235375502], [50.382236293323075, -20.891822521371868], [50.38890796097828, -20.884064702527855], [50.96980038576294, -21.23046279605478]]]}}, {"type": "Feature", "properties": {"id": "201006.0017533", "address": "1028;1030", "street": "Lombard Street", "source_footprint_area_m2": 240.3825788645269, "modeled_footprint_area_m2": 240.3825788645269, "public_clearance_clip_m2": 0.0, "ground_min_navd88_m": 63.26, "median_first_return_navd88_m": 75.06, "source_median_height_m": 9.45, "source_peak_navd88_m": 77.11, "source_height_std_m": 1.2977278759000002, "skipped_parent_overlap_writes": 64, "interpretation": "Flat height-envelope cap, not inferred roof shape; neutral palette does not assert facade colors. First-return statistics may include vegetation."}, "geometry": {"type": "Polygon", "coordinates": [[[94.0243888712721, -53.767823432572186], [94.02156420808751, -53.769026356283575], [91.51634279883001, -53.280889900401235], [90.91439920372795, -56.258925535716116], [87.1735031211283, -55.585245196241885], [87.43600928573869, -54.2861632858403], [84.46510151587427, -53.70847748732194], [85.79575933760498, -46.874548570252955], [84.30208056315314, -46.58443421078846], [85.37742866773624, -41.06749562732875], [86.60943034896627, -41.30616429261863], [88.53538314905018, -31.41726750647649], [88.53820781677496, -31.41606458183378], [88.55429934791755, -31.419160425197333], [89.02503689355217, -28.644353181123734], [89.27110952930525, -28.685383336618543], [89.58422135689761, -26.68128127651289], [97.00249231304042, -27.842069297563285], [96.67380700679496, -29.94349190359935], [97.15582894242834, -30.025378755759448], [96.65673226024956, -32.95723109180108], [96.5937861945713, -32.98546567512676], [93.547248590854, -48.62712711514905], [94.71302802686114, -48.85440064035356], [94.0457634277409, -53.65755708748475], [94.0243888712721, -53.767823432572186]]]}}, {"type": "Feature", "properties": {"id": "201006.0020610", "address": "1055;1057", "street": "Lombard Street", "source_footprint_area_m2": 217.63466622286157, "modeled_footprint_area_m2": 200.08000417382354, "public_clearance_clip_m2": 17.55466204903803, "ground_min_navd88_m": 64.93, "median_first_return_navd88_m": 79.6, "source_median_height_m": 10.95, "source_peak_navd88_m": 89.01, "source_height_std_m": 1.9369165774000001, "skipped_parent_overlap_writes": 1472, "interpretation": "Flat height-envelope cap, not inferred roof shape; neutral palette does not assert facade colors. First-return statistics may include vegetation."}, "geometry": {"type": "Polygon", "coordinates": [[[63.53414226346649, 1.8008395549841225], [64.13191035890486, 5.665980469901115], [64.36920390406158, 7.200664208736271], [61.449732193374075, 7.686595346778631], [61.90764765639324, 10.43929275777191], [65.2726583284093, 9.879359170794487], [65.57095954788383, 11.781809157691896], [65.08994506741874, 11.856253924313933], [65.98942114738747, 17.661769757047296], [75.48173859994859, 16.19174937205389], [74.62045423104428, 10.625324885826558], [76.21653460012749, 10.349887405987829], [73.91249466792215, -3.0035311989486217], [73.598138300399, -2.9494196546087204], [73.36606853821672, -2.7548991825409597], [73.35573224206317, -2.746689996776178], [73.10559759809594, -2.558581672046856], [72.89113465676667, -2.391524300593543], [72.61644414178446, -2.171459298662279], [72.59417155151343, -2.155536841705442], [72.57029139606898, -2.142145385889432], [72.36427095187082, -2.04102167455111], [72.16809379967513, -1.883856708809186], [72.1458212094041, -1.867934251852351], [72.12194105395966, -1.854542796036342], [71.81963433972768, -1.7061576344344853], [71.68521137837524, -1.640177052779338], [71.48903422617958, -1.4830120870374133], [71.46676163590854, -1.4670896300805714], [71.44288148046408, -1.4536981742645587], [71.06023229276806, -1.2658774647664586], [71.04150716924218, -1.2576194823586069], [71.0221693473985, -1.2509207383830208], [71.00234841370167, -1.2458261224118647], [70.78875063952403, -1.2001554940716421], [70.66608818279614, -1.139947474840956], [70.43537895140989, -1.0267054429222704], [70.12432724655962, -0.8740278631073386], [70.10560212303372, -0.8657698806994861], [70.08626430119006, -0.8590711367238978], [70.0664433674932, -0.8539765207527399], [69.49136788756539, -0.7310161640145902], [69.36529088921634, -0.7040588806064686], [69.16228595902453, -0.6044153134795693], [69.14356083549863, -0.5961573310717142], [69.12422301365496, -0.5894585870961248], [69.1044020799581, -0.5843639711249692], [68.77310395207991, -0.5135271202898444], [68.44180582420172, -0.4426902694547201], [68.4216346025418, -0.4392339214897826], [68.40124826415594, -0.43743900318374984], [68.38078342181983, -0.4373175426295195], [68.15478077361688, -0.4452324120045864], [67.9411829994392, -0.39956178366435813], [67.92101177777928, -0.396105435699421], [67.90062543939342, -0.3943105173933883], [67.88016059705731, -0.39418905683915795], [67.53387093326556, -0.406316514090839], [67.39726678450725, -0.41110054649980177], [67.13006449724651, -0.35399422512239564], [67.10743103366792, -0.35023362183548074], [67.0845481211339, -0.34856385400593126], [67.06160849447565, -0.3489989855087153], [67.0388053662078, -0.3515353513821884], [66.68898154614588, -0.40679768206285166], [66.40690401873368, -0.3732946692798179], [66.37689877545621, -0.37155028970280113], [66.34690103947243, -0.3734193322641624], [65.89430455251119, -0.4290834045993572], [65.86472162651513, -0.4345453608152546], [65.83600893259734, -0.4435210883164513], [65.59359573599801, -0.535647977343727], [65.44540351213296, -0.5571429646721828], [65.1910621873969, -0.5940346679594166], [64.93672086266083, -0.6309263712466512], [64.60344815522578, -0.6792669146057996], [64.57660885662021, -0.6846747758545046], [64.55052185857765, -0.6929850975119978], [64.31554955810417, -0.7822841429182702], [64.16735733423911, -0.8037791302467281], [63.834084626804085, -0.8521196736058754], [63.807245328198526, -0.8575275348545792], [63.78115833015597, -0.8658378565120733], [63.445922573625836, -0.993241099293744], [63.185241694676286, -1.0923104517193531], [63.08056432669376, -1.13209211542033], [63.53414226346649, 1.8008395549841225]]]}}, {"type": "Feature", "properties": {"id": "201006.0020805", "address": "1010", "street": "Lombard Street", "source_footprint_area_m2": 216.39963139261144, "modeled_footprint_area_m2": 216.3996313926114, "public_clearance_clip_m2": 2.842170943040401e-14, "ground_min_navd88_m": 57.72, "median_first_return_navd88_m": 71.84, "source_median_height_m": 8.47, "source_peak_navd88_m": 72.65, "source_height_std_m": 1.9788445343999999, "skipped_parent_overlap_writes": 0, "interpretation": "Flat height-envelope cap, not inferred roof shape; neutral palette does not assert facade colors. First-return statistics may include vegetation."}, "geometry": {"type": "Polygon", "coordinates": [[[111.14203757641371, -52.87184952571988], [110.9814708023332, -53.860227909404784], [110.13478616054635, -53.724255601875484], [109.46227604500018, -54.218920569401234], [108.46560541540384, -54.60183502919972], [106.97558240115177, -54.36122478079051], [106.10817914549261, -53.678231336176395], [105.44300647999626, -52.965318120550364], [104.57785534951836, -52.825902870390564], [104.77991788857616, -51.577817149460316], [104.91896832280327, -51.59965259954333], [107.22035157599021, -37.85877291020006], [107.22335231245961, -37.85757108591497], [107.25870661379304, -37.86344971740618], [107.2721894615097, -37.7764346585609], [107.61953633325174, -35.78896740078926], [107.66719464375637, -35.50111620454118], [107.67010803637095, -35.49980288185179], [108.22812709514983, -35.59237102093175], [108.45320737431757, -34.337993289809674], [113.51523801288567, -35.24536276841536], [113.30236496916041, -36.433687707874924], [113.48546870495193, -36.46411898545921], [113.43195580446627, -36.78732807189226], [119.57461801625323, -37.85365483677015], [118.03259375935886, -46.74656954826787], [118.10444704524707, -46.85730506386608], [118.07487259653863, -47.02610407304019], [116.9377092194045, -53.843257803004235], [111.14203757641371, -52.87184952571988]]]}}, {"type": "Feature", "properties": {"id": "201006.0021655", "address": "1079", "street": "Lombard Street", "source_footprint_area_m2": 211.96891696824764, "modeled_footprint_area_m2": 199.75128241940263, "public_clearance_clip_m2": 12.217634548845012, "ground_min_navd88_m": 76.57, "median_first_return_navd88_m": 89.84, "source_median_height_m": 10.73, "source_peak_navd88_m": 90.61, "source_height_std_m": 1.1279640791, "skipped_parent_overlap_writes": 940, "interpretation": "Flat height-envelope cap, not inferred roof shape; neutral palette does not assert facade colors. First-return statistics may include vegetation."}, "geometry": {"type": "Polygon", "coordinates": [[[36.87235531641636, 20.4042193768546], [37.656325106858276, 20.27585645020008], [37.72778769850265, 20.711239925585687], [37.73052296170499, 20.71222151769325], [38.6616306360811, 20.559865828603506], [39.08926802780479, 23.10227264231071], [40.116667279275134, 24.235719710588455], [48.50291367818136, 22.82597225345671], [47.86818988097366, 19.048048047814518], [48.21628797240555, 18.99096248438582], [47.65896687714849, 15.584142330568284], [46.885840403148904, 15.23311733501032], [46.607976241153665, 13.416972950100899], [45.70876988139935, 12.83761125151068], [44.47146329563111, 4.743879229295999], [44.46881538059097, 4.7427861439064145], [41.933986933087, 5.130788642447442], [41.70486665880011, 3.7300110701034463], [41.56219864912567, 3.7634012347711523], [41.135361411423766, 3.9838898034826644], [41.11671297571653, 3.992570435553303], [41.09741403233274, 3.999688603276949], [41.07759523281172, 4.005196117509167], [40.74855886245251, 4.082204121006438], [40.506954533654216, 4.138749426785703], [40.249810061783734, 4.198885373377745], [40.24852748056075, 4.199181759294563], [39.92964840117668, 4.271986259595264], [39.916539517963216, 4.274612519792528], [39.59495285763432, 4.3301403811976815], [39.59416704438025, 4.330274776393938], [39.33854814290324, 4.373573102714262], [39.00536146529306, 4.429980515858469], [38.98495615039643, 4.432576792315626], [38.96440646735416, 4.4334867672246], [38.94385153506352, 4.432704280164057], [38.71985554739377, 4.4149263918274695], [38.50595417716448, 4.451139193159075], [38.48554886226785, 4.45373546961623], [38.46499917922558, 4.454645444525204], [38.44444424693494, 4.453862957464661], [38.09984483875089, 4.4265131381072615], [37.84492489710311, 4.406280908483286], [37.71060837596965, 4.395620609880123], [37.4154218998907, 4.445594713377288], [37.39225491302417, 4.4484120153852045], [37.368926158366826, 4.44905674572867], [37.345638930701064, 4.447523286005979], [37.32259616292879, 4.443824999311957], [37.299998657644416, 4.437994113787355], [36.972810405654705, 4.337063802378024], [36.82524513051202, 4.325351989987382], [36.490497359924554, 4.298784065497594], [36.4632564774003, 4.29510610020369], [36.43658404790781, 4.288459701602076], [36.197617985544404, 4.214743976957541], [35.97022488146204, 4.196696469701086], [35.942983998937784, 4.193018504407182], [35.91631156944529, 4.186372105805568], [35.57443825672165, 4.080911779201845], [35.41199297026713, 4.0308010149885005], [35.18459986618474, 4.012753507732046], [35.15735898366048, 4.009075542438141], [35.13068655416799, 4.002429143836526], [34.73034307748222, 3.8789320698222034], [34.713556822911336, 3.8867752096722024], [34.69041860807851, 3.8949319357510386], [34.66659231110972, 3.9007814433141004], [34.64230739226955, 3.9042673984058887], [34.61779772860193, 3.9053562293732536], [34.59329936156632, 3.904037450178763], [34.56904822382944, 3.9003237613869786], [34.545277867104716, 3.8942509278510737], [34.23867066219034, 3.799669412518044], [36.87235531641636, 20.4042193768546]]]}}, {"type": "Feature", "properties": {"id": "201006.0067998", "address": null, "street": null, "source_footprint_area_m2": 137.87399555669435, "modeled_footprint_area_m2": 106.39233913063327, "public_clearance_clip_m2": 31.48165642606108, "ground_min_navd88_m": 82.0, "median_first_return_navd88_m": 98.13, "source_median_height_m": 13.5, "source_peak_navd88_m": 99.33, "source_height_std_m": 1.6986749993999999, "skipped_parent_overlap_writes": 1689, "interpretation": "Flat height-envelope cap, not inferred roof shape; neutral palette does not assert facade colors. First-return statistics may include vegetation."}, "geometry": {"type": "Polygon", "coordinates": [[[25.32060561014805, 12.895827143918723], [27.110961836995557, 12.602216428145766], [26.273608253453858, 7.495654219761491], [27.301718338625506, 7.326941731851548], [26.785318447679344, 4.176045306058078], [26.731269945479117, 4.186720791108472], [26.706996837873557, 4.190288060812919], [26.682490958340416, 4.191458972544297], [26.65798831189588, 4.190222249782546], [26.633724872419716, 4.1865898028439235], [26.609934310097824, 4.180596614178147], [26.58684574105061, 4.172300401468277], [26.564681520819494, 4.161781061777881], [26.543655102961495, 4.149139902098634], [26.523968983374797, 4.134498663708607], [26.505812750152547, 4.117998349737212], [26.49495169164957, 4.105982631015242], [26.325435208785883, 4.139464977517697], [26.08377543229586, 4.187196833650244], [25.600455879315803, 4.282660545915339], [25.358796102825778, 4.3303924020478854], [25.11713632633575, 4.378124258180433], [24.875476549845725, 4.425856114312979], [24.633816773355697, 4.473587970445527], [24.392156996865676, 4.521319826578072], [24.150497220375645, 4.569051682710621], [23.908837443885616, 4.616783538843168], [23.183858114415543, 4.759979107240809], [22.94219833792551, 4.807710963373356], [22.70053856143549, 4.855442819505901], [22.458878784945462, 4.90317467563845], [22.217219008455434, 4.950906531770997], [21.975559231965406, 4.9986383879035445], [21.73389945547538, 5.046370244036091], [21.492239678985353, 5.094102100168638], [21.008920126005304, 5.189565812433732], [20.767260349515276, 5.2372976685662795], [20.52560057302525, 5.285029524698826], [20.28394079653522, 5.332761380831374], [20.042281020045195, 5.380493236963921], [19.558961467065142, 5.4759569492290145], [19.317301690575118, 5.523688805361561], [19.07564191408509, 5.571420661494109], [18.833982137595065, 5.619152517626656], [18.592322361105037, 5.666884373759204], [18.35066258461501, 5.71461622989175], [18.109002808124984, 5.762348086024297], [17.867343031634956, 5.810079942156844], [17.62568325514493, 5.857811798289391], [17.384023478654903, 5.905543654421939], [16.900703925674854, 6.001007366687032], [16.659044149184822, 6.04873922281958], [15.93406481971475, 6.1919347912172205], [15.69240504322472, 6.239666647349768], [15.209085490244666, 6.335130359614862], [14.967425713754645, 6.382862215747407], [14.725765937264613, 6.430594071879956], [14.242446384284563, 6.52605778414505], [14.000786607794538, 6.573789640277597], [13.759126831304508, 6.6215214964101445], [13.488623620082999, 6.674950414325037], [13.523169121700107, 6.882057413320496], [13.564300921411842, 7.128650549989879], [13.605432721123584, 7.375243686659298], [13.646564520835335, 7.621836823328757], [13.687696320547078, 7.868429959998176], [13.728828120258829, 8.115023096667635], [13.769959919970571, 8.361616233337054], [13.811091719682322, 8.608209370006513], [13.852223519394064, 8.854802506675933], [13.893355319105815, 9.101395643345391], [13.934487118817557, 9.347988780014811], [13.975618918529308, 9.59458191668427], [14.01675071824105, 9.84117505335369], [14.057882517952802, 10.087768190023148], [14.099014317664544, 10.334361326692568], [14.140146117376295, 10.580954463362026], [14.181277917088037, 10.827547600031446], [14.222409716799788, 11.074140736700905], [14.26354151651153, 11.320733873370324], [14.304673316223282, 11.567327010039783], [14.345805115935024, 11.813920146709203], [14.386936915646775, 12.06051328337866], [14.428068715358531, 12.307106420048157], [14.469200515070266, 12.55369955671754], [14.551464114493756, 13.046885830056405], [14.592595914205507, 13.293478966725864], [14.63372771391725, 13.540072103395284], [14.674859513629, 13.786665240064742], [14.715991313340743, 14.033258376734162], [14.757123113052494, 14.27985151340362], [14.798254912764236, 14.52644465007304], [14.813623291658779, 14.61858106967267], [25.32060561014805, 12.895827143918723]]]}}, {"type": "Feature", "properties": {"id": "201006.0078342", "address": null, "street": null, "source_footprint_area_m2": 131.28149771387547, "modeled_footprint_area_m2": 131.28149771387547, "public_clearance_clip_m2": 0.0, "ground_min_navd88_m": 53.49, "median_first_return_navd88_m": 65.79, "source_median_height_m": 11.79, "source_peak_navd88_m": 68.99, "source_height_std_m": 0.8194461325, "skipped_parent_overlap_writes": 16, "interpretation": "Flat height-envelope cap, not inferred roof shape; neutral palette does not assert facade colors. First-return statistics may include vegetation."}, "geometry": {"type": "Polygon", "coordinates": [[[125.2276500199223, -3.058246082626283], [125.23055790225044, -3.0578203652985394], [127.89914980053436, -3.481742713600397], [128.62022635911126, 1.024052010383457], [130.30438075610436, 0.7550458670593798], [130.43047912267502, 1.5516878571361303], [130.43329966429155, 1.5522250714711845], [138.1425308790058, 0.33100544661283493], [136.25805094873067, -11.568293518386781], [136.25478540593758, -11.569604638963938], [131.38013151066843, -10.796310774050653], [131.3819695377024, -10.78389535844326], [124.1817567946855, -9.637082502245903], [124.59800639003515, -7.018827093299478], [125.21962092339527, -3.117667491082102], [125.2276500199223, -3.058246082626283]]]}}, {"type": "Feature", "properties": {"id": "201006.0080952", "address": "1033;1035;1037", "street": "Lombard Street", "source_footprint_area_m2": 129.64266268482265, "modeled_footprint_area_m2": 126.70479753784348, "public_clearance_clip_m2": 2.9378651469791777, "ground_min_navd88_m": 61.65, "median_first_return_navd88_m": 74.95, "source_median_height_m": 11.29, "source_peak_navd88_m": 76.83, "source_height_std_m": 1.3310631276999998, "skipped_parent_overlap_writes": 484, "interpretation": "Flat height-envelope cap, not inferred roof shape; neutral palette does not assert facade colors. First-return statistics may include vegetation."}, "geometry": {"type": "Polygon", "coordinates": [[[84.53154620947316, -5.11555851995945], [86.49313078762498, 9.171113764867187], [92.06241071899422, 8.198801837861538], [91.35048773721792, 4.567043453454971], [96.21727761439979, 3.688083224929869], [96.02574609569274, 2.5902746482752264], [94.99111527460627, -3.342216725461185], [94.65891431765375, -5.246857910761465], [94.42194693668013, -5.271077406708952], [94.39490342685372, -5.275348412350713], [94.3684891264956, -5.282551026425852], [94.14322927459499, -5.357447714602393], [93.89024494152623, -5.376089865497737], [93.86196394656355, -5.379805515934277], [93.8342902826292, -5.3867184790250855], [93.52134254200519, -5.484166920270897], [93.22868562190605, -5.528793346436828], [93.19915976808717, -5.535140880687589], [93.17061474435238, -5.545002364084089], [92.93074301790351, -5.6444653738075985], [92.70470539173785, -5.684182120651083], [92.67803969624588, -5.690389664195299], [92.65221270589988, -5.699475889076483], [92.32093415782994, -5.836840812970078], [92.16241034315357, -5.902572843810014], [91.93637271698793, -5.942289590653494], [91.90970702149596, -5.94849713419771], [91.88388003114997, -5.957583359078894], [91.55260148308002, -6.09494828297249], [91.23453318494437, -6.226835565807197], [91.21415570153589, -6.236381448266064], [91.19471912278055, -6.247720985658287], [91.15602976026837, -6.2726921398815785], [84.53154620947316, -5.11555851995945]]]}}, {"type": "Feature", "properties": {"id": "201006.0038369", "address": "4", "street": "Montclair Terrace", "source_footprint_area_m2": 165.7614755916369, "modeled_footprint_area_m2": 165.76147559163692, "public_clearance_clip_m2": -2.842170943040401e-14, "ground_min_navd88_m": 68.21, "median_first_return_navd88_m": 81.28, "source_median_height_m": 11.62, "source_peak_navd88_m": 82.61, "source_height_std_m": 1.4056244323000002, "skipped_parent_overlap_writes": 0, "interpretation": "Flat height-envelope cap, not inferred roof shape; neutral palette does not assert facade colors. First-return statistics may include vegetation."}, "geometry": {"type": "Polygon", "coordinates": [[[74.40190431883093, -29.591833368409425], [76.51946498942561, -29.945074741262943], [74.29769892594777, -43.26405496057123], [74.2949622971937, -43.265258439816535], [63.73980615613982, -41.5038116783835], [66.37117596238386, -25.73762065777555], [74.81073424837086, -27.14473162498325], [74.40190431883093, -29.591833368409425]]]}}, {"type": "Feature", "properties": {"id": "201006.0040139", "address": "1073", "street": "Lombard Street", "source_footprint_area_m2": 163.2401216860146, "modeled_footprint_area_m2": 163.24012168601456, "public_clearance_clip_m2": 2.842170943040401e-14, "ground_min_navd88_m": 72.39, "median_first_return_navd88_m": 87.27, "source_median_height_m": 12.95, "source_peak_navd88_m": 89.07, "source_height_std_m": 1.0681970647999999, "skipped_parent_overlap_writes": 0, "interpretation": "Flat height-envelope cap, not inferred roof shape; neutral palette does not assert facade colors. First-return statistics may include vegetation."}, "geometry": {"type": "Polygon", "coordinates": [[[61.15443811076693, 23.574277663137764], [60.957065792172216, 23.603908811230212], [60.10401162120979, 18.52440919773653], [60.10004042740911, 18.52288052625954], [53.94040458591189, 19.557423669379205], [53.54656562930904, 17.21274950262159], [53.54312401963398, 17.21143944421783], [50.702652541105635, 17.688776036258787], [50.91529753152281, 18.954993532504886], [49.689773030928336, 19.16088496474549], [49.69443929835688, 19.189260201063007], [52.43005803239066, 35.483169365208596], [52.433411613455974, 35.48447997169569], [59.67655066691805, 34.26745194289833], [61.18081796960905, 33.89372812444344], [60.44095078622922, 29.97099767625332], [62.17050781985745, 29.342676081229], [61.40674667910207, 25.215938767883927], [61.15443811076693, 23.574277663137764]]]}}, {"type": "Feature", "properties": {"id": "201006.0040348", "address": "2250", "street": "Hyde Street", "source_footprint_area_m2": 162.94218851316714, "modeled_footprint_area_m2": 160.97300954421783, "public_clearance_clip_m2": 1.9691789689493078, "ground_min_navd88_m": 81.73, "median_first_return_navd88_m": 111.99, "source_median_height_m": 27.28, "source_peak_navd88_m": 120.47, "source_height_std_m": 6.1796593232, "skipped_parent_overlap_writes": 0, "interpretation": "Flat height-envelope cap, not inferred roof shape; neutral palette does not assert facade colors. First-return statistics may include vegetation."}, "geometry": {"type": "Polygon", "coordinates": [[[16.1460986409802, 32.552179099526256], [16.152805101824924, 32.554689390119165], [28.34375823859591, 30.43119757901877], [28.32394762453623, 30.31748179765418], [31.624642797745764, 29.748197745531797], [30.9868895028485, 26.048291912768036], [29.809445409104228, 19.695055146235973], [26.596879683318548, 20.250143733806908], [26.571816122042947, 20.25451568281278], [26.55857835127972, 20.178483441472054], [26.550724697997794, 20.17553646955639], [16.045759027641864, 22.005474375287175], [16.073340703828386, 22.170831886825674], [16.114472503540124, 22.417425023495092], [16.155604303251877, 22.664018160164552], [16.196736102963627, 22.910611296834], [16.199580310994154, 22.93497971177331], [16.200022301038903, 22.959509567271777], [16.198057816492117, 22.98396462741157], [16.193705776413882, 23.008109376595044], [16.187008093329222, 23.0317112876887], [16.17802926958756, 23.05454306138659], [16.166855776169864, 23.076384815226884], [16.15359521992579, 23.097026201180185], [16.13837530726093, 23.11626843141603], [16.121342614254292, 23.133926192738382], [16.102661175050553, 23.149829431252986], [16.082510902121555, 23.163824990079352], [16.061085853610866, 23.17577808433524], [16.03859236444777, 23.185573599188725], [16.01524705922909, 23.193117198477008], [15.991274766005931, 23.198336233215183], [14.558248898777642, 23.437365322786313], [16.1460986409802, 32.552179099526256]]]}}, {"type": "Feature", "properties": {"id": "201006.0042184", "address": null, "street": null, "source_footprint_area_m2": 160.58059842081062, "modeled_footprint_area_m2": 158.12763421104208, "public_clearance_clip_m2": 2.4529642097685382, "ground_min_navd88_m": 54.62, "median_first_return_navd88_m": 68.63, "source_median_height_m": 11.51, "source_peak_navd88_m": 72.58, "source_height_std_m": 1.8667063852, "skipped_parent_overlap_writes": 608, "interpretation": "Flat height-envelope cap, not inferred roof shape; neutral palette does not assert facade colors. First-return statistics may include vegetation."}, "geometry": {"type": "Polygon", "coordinates": [[[108.67532066674903, -8.799523430876434], [109.76759582536761, -2.235065017361194], [109.77024374937173, -2.23397195385769], [109.92203922721092, -2.2592153968289495], [110.77340480079874, 3.6336944615468383], [116.92880832392257, 2.7424874366261065], [116.68235645850655, 1.039211851079017], [117.25745692709461, 0.28170006535947323], [119.93973558733705, -0.19245608849450946], [119.58930254436564, -2.180014538113028], [125.21962092339527, -3.117667491082102], [124.59800639003515, -7.018827093299478], [124.2424394247355, -6.959694610442966], [123.73245461816671, -10.024151260763611], [123.63503762527986, -10.030990624232933], [123.29910421250572, -10.054575531171297], [123.27193871558538, -10.057985617679686], [123.24530901774524, -10.064345814678775], [123.00438116439236, -10.136040103008062], [122.7754443010596, -10.152113093699509], [122.74827880413925, -10.155523180207897], [122.72164910629911, -10.161883377206985], [122.48072125294622, -10.233577665536268], [122.25658557014519, -10.249313579319827], [122.23103558116863, -10.25243573091595], [122.20594204831472, -10.258168476872426], [121.8313626802076, -10.364301911347663], [121.81332987738774, -10.370158599664459], [121.5622700089366, -10.46236115993178], [121.46828140052557, -10.48723443627501], [121.33723995629089, -10.489511302582187], [119.84174068707681, -10.515495844483173], [119.55254070057907, -10.520520741065612], [119.52509863518382, -10.522511842800562], [119.23965868918759, -10.55909982951385], [108.67532066674903, -8.799523430876434]]]}}, {"type": "Feature", "properties": {"id": "201006.0130884", "address": null, "street": null, "source_footprint_area_m2": 99.09170643068731, "modeled_footprint_area_m2": 83.04423230046588, "public_clearance_clip_m2": 16.04747413022143, "ground_min_navd88_m": 83.03, "median_first_return_navd88_m": 99.22, "source_median_height_m": 14.74, "source_peak_navd88_m": 107.54, "source_height_std_m": 1.8678426736, "skipped_parent_overlap_writes": 0, "interpretation": "Flat height-envelope cap, not inferred roof shape; neutral palette does not assert facade colors. First-return statistics may include vegetation."}, "geometry": {"type": "Polygon", "coordinates": [[[26.49805367202498, 20.14324317360297], [26.477185128605925, 20.015109933447093], [27.498833248508163, 19.854648193344474], [26.748105949140154, 15.073752832133323], [26.743605179945007, 15.072005527094007], [25.7008508060826, 15.236037871334702], [25.32060561014805, 12.895827143918723], [14.813623291658779, 14.61858106967267], [14.839386712475987, 14.7730377867425], [14.880518512187729, 15.019630923411919], [14.92165031189948, 15.266224060081377], [14.962782111611222, 15.512817196750797], [15.003913911322973, 15.759410333420256], [15.045045711034716, 16.006003470089674], [15.086177510746467, 16.252596606759134], [15.127309310458209, 16.499189743428552], [15.16844111016996, 16.745782880098012], [15.209572909881702, 16.99237601676743], [15.250704709593453, 17.23896915343689], [15.291836509305195, 17.48556229010631], [15.332968309016946, 17.73215542677577], [15.374100108728689, 17.978748563445187], [15.41523190844044, 18.225341700114647], [15.456363708152196, 18.471934836784143], [15.497495507863931, 18.718527973453526], [15.538627307575673, 18.965121110122944], [15.579759107287424, 19.211714246792404], [15.620890906999167, 19.458307383461822], [15.662022706710918, 19.704900520131282], [15.70315450642266, 19.9514936568007], [15.744286306134411, 20.19808679347016], [15.785418105846153, 20.44467993013958], [15.826549905557904, 20.69127306680904], [15.867681705269646, 20.937866203478457], [15.908813504981397, 21.184459340147917], [15.94994530469314, 21.431052476817335], [15.99107710440489, 21.677645613486796], [16.018927275098843, 21.844612801801674], [26.49805367202498, 20.14324317360297]]]}}, {"type": "Feature", "properties": {"id": "201006.0093585", "address": "1016;1018", "street": "Lombard Street", "source_footprint_area_m2": 122.05656915855371, "modeled_footprint_area_m2": 122.0565691585537, "public_clearance_clip_m2": 1.4210854715202004e-14, "ground_min_navd88_m": 64.42, "median_first_return_navd88_m": 74.2, "source_median_height_m": 9.31, "source_peak_navd88_m": 74.74, "source_height_std_m": 0.3104254494, "skipped_parent_overlap_writes": 0, "interpretation": "Flat height-envelope cap, not inferred roof shape; neutral palette does not assert facade colors. First-return statistics may include vegetation."}, "geometry": {"type": "Polygon", "coordinates": [[[104.34280687454157, -39.70711695961654], [105.01603646972217, -39.818598149809986], [103.49336682888679, -49.01343084825203], [103.49036540673114, -49.01474362472072], [94.90154057880864, -47.590696851257235], [97.25605916348286, -33.372377016115934], [97.2590605901787, -33.37106423918158], [105.17485360894352, -34.68241268862039], [104.34280687454157, -39.70711695961654]]]}}, {"type": "Feature", "properties": {"id": "201006.0145296", "address": "25", "street": "Montclair Terrace", "source_footprint_area_m2": 87.24328464008734, "modeled_footprint_area_m2": 87.24328464008732, "public_clearance_clip_m2": 1.4210854715202004e-14, "ground_min_navd88_m": 71.64, "median_first_return_navd88_m": 85.22, "source_median_height_m": 12.06, "source_peak_navd88_m": 91.68, "source_height_std_m": 1.0365465396, "skipped_parent_overlap_writes": 0, "interpretation": "Flat height-envelope cap, not inferred roof shape; neutral palette does not assert facade colors. First-return statistics may include vegetation."}, "geometry": {"type": "Polygon", "coordinates": [[[50.935621487675235, -47.63731672754511], [50.93262559256982, -47.637741923332214], [48.59259037312586, -47.257604982703924], [47.655375252244994, -53.01895063277334], [47.65166750375647, -53.02059190068394], [40.609418230946176, -51.87405669130385], [42.318434206419624, -41.368894470855594], [42.32143424230162, -41.367803572677076], [45.34898069896735, -41.870821056421846], [51.70159352745395, -42.92641877941787], [50.935621487675235, -47.63731672754511]]]}}, {"type": "Feature", "properties": {"id": "201006.0147367", "address": null, "street": null, "source_footprint_area_m2": 84.56175860059625, "modeled_footprint_area_m2": 83.09428996390456, "public_clearance_clip_m2": 1.4674686366916916, "ground_min_navd88_m": 52.41, "median_first_return_navd88_m": 67.25, "source_median_height_m": 12.16, "source_peak_navd88_m": 69.23, "source_height_std_m": 1.5788107812999999, "skipped_parent_overlap_writes": 0, "interpretation": "Flat height-envelope cap, not inferred roof shape; neutral palette does not assert facade colors. First-return statistics may include vegetation."}, "geometry": {"type": "Polygon", "coordinates": [[[161.66116148070432, -51.09687064634636], [161.5837406675564, -51.61154825147241], [161.58709492266644, -51.61012674169615], [162.50223355647177, -51.29994052881375], [161.28548557742033, -58.407958501949906], [161.2819538753247, -58.409600815270096], [160.57770073821303, -57.65383326681331], [160.4792631099699, -58.24948742426932], [160.47573762747925, -58.250131191220134], [160.25560771860182, -58.21380958426744], [150.47430437034927, -56.58378041815013], [150.57585257221945, -55.969172375742346], [149.69569777336437, -56.42969863070175], [149.69199000520166, -56.43133985251188], [150.77742995527177, -50.08803216188816], [152.53291331593772, -50.374904559688865], [152.55729097128332, -50.37766844930783], [152.581822150112, -50.37802960197792], [152.60627060376152, -50.3759845396015], [152.63040088025832, -50.371552957247175], [152.6539805918488, -50.36477753347559], [152.67678265302038, -50.35572351932148], [152.6985874674591, -50.344478109890574], [152.71918504288217, -50.33114960462307], [152.7383770133785, -50.31586636431078], [152.75597854978082, -50.29877557491259], [152.7718201396716, -50.28004183007318], [152.78574921988027, -50.25984554599626], [152.79763164575002, -50.2383812239379], [152.80735298302415, -50.21585557705311], [152.81481960991047, -50.19248553963517], [152.81995961871039, -50.16849617791978], [152.86027857921198, -49.921768835650155], [152.90059753971403, -49.675041493378], [152.91196386395413, -49.60548655108165], [161.66116148070432, -51.09687064634636]]]}}, {"type": "Feature", "properties": {"id": "201006.0150617", "address": null, "street": null, "source_footprint_area_m2": 79.84351787116843, "modeled_footprint_area_m2": 79.83669609690128, "public_clearance_clip_m2": 0.006821774267152136, "ground_min_navd88_m": 71.09, "median_first_return_navd88_m": 79.15, "source_median_height_m": 6.04, "source_peak_navd88_m": 88.77, "source_height_std_m": 3.1794905443, "skipped_parent_overlap_writes": 4292, "interpretation": "Flat height-envelope cap, not inferred roof shape; neutral palette does not assert facade colors. First-return statistics may include vegetation."}, "geometry": {"type": "Polygon", "coordinates": [[[58.11269633099437, -0.41072571836411953], [56.48427626048215, 1.1060413615778089], [57.23883538879454, 5.594324715901166], [54.28745599684771, 6.05992515059188], [55.28345678478945, 14.676972601562738], [55.30579086323269, 14.81419490184635], [59.34821502829436, 14.177378351800144], [58.1523427402135, 6.590672560036182], [59.259578651050106, 6.404710168018937], [60.73662398534361, 6.156311720144004], [60.73907056462485, 6.167502871248871], [62.6664295893861, 5.891118242871016], [64.13191035890486, 5.665980469901115], [63.53414226346649, 1.8008395549841225], [63.03761997950267, -1.148412716623247], [62.92456081572675, -1.191379804144958], [62.87227079729184, -1.211252141101716], [58.11269633099437, -0.41072571836411953]]]}}, {"type": "Feature", "properties": {"id": "201006.0150764", "address": null, "street": null, "source_footprint_area_m2": 79.6208908498941, "modeled_footprint_area_m2": 79.6208908498941, "public_clearance_clip_m2": 0.0, "ground_min_navd88_m": 52.21, "median_first_return_navd88_m": 68.68, "source_median_height_m": 14.58, "source_peak_navd88_m": 70.7, "source_height_std_m": 1.5348509649, "skipped_parent_overlap_writes": 0, "interpretation": "Flat height-envelope cap, not inferred roof shape; neutral palette does not assert facade colors. First-return statistics may include vegetation."}, "geometry": {"type": "Polygon", "coordinates": [[[159.0328827201156, -65.6175942919217], [149.21525814651977, -63.99699324881658], [149.33822192740627, -63.251481767743826], [148.5161880409578, -63.68119196780026], [148.5124795876909, -63.68294414039701], [149.72903906938154, -56.575034195091575], [149.73265880474355, -56.57339242473245], [150.36019521555863, -57.06660774117336], [150.44051681342535, -56.58079616166651], [150.44475416187197, -56.57893632911146], [150.47430437034927, -56.58378041815013], [160.25560771860182, -58.21380958426744], [159.0328827201156, -65.6175942919217]]]}}, {"type": "Feature", "properties": {"id": "201006.0155546", "address": null, "street": null, "source_footprint_area_m2": 70.9265217418147, "modeled_footprint_area_m2": 70.92652174181471, "public_clearance_clip_m2": -1.4210854715202004e-14, "ground_min_navd88_m": 71.79, "median_first_return_navd88_m": 87.04, "source_median_height_m": 13.16, "source_peak_navd88_m": 87.59, "source_height_std_m": 0.9561801015, "skipped_parent_overlap_writes": 0, "interpretation": "Flat height-envelope cap, not inferred roof shape; neutral palette does not assert facade colors. First-return statistics may include vegetation."}, "geometry": {"type": "Polygon", "coordinates": [[[52.27184634876903, -36.078882611356676], [54.21608456003014, -36.428378119599074], [53.00547325797379, -43.15876094205305], [53.00176550622564, -43.160402208566666], [51.70159352745395, -42.92641877941787], [45.34898069896735, -41.870821056421846], [46.29131220839918, -35.98024556552991], [46.849428798421286, -32.27485268563032], [52.741474122856744, -33.15483336849138], [52.27184634876903, -36.078882611356676]]]}}, {"type": "Feature", "properties": {"id": "201006.0157808", "address": null, "street": null, "source_footprint_area_m2": 61.20894975569131, "modeled_footprint_area_m2": 61.2089497556913, "public_clearance_clip_m2": 7.105427357601002e-15, "ground_min_navd88_m": 74.06, "median_first_return_navd88_m": 77.77, "source_median_height_m": 2.82, "source_peak_navd88_m": 81.82, "source_height_std_m": 1.1712469091, "skipped_parent_overlap_writes": 0, "interpretation": "Flat height-envelope cap, not inferred roof shape; neutral palette does not assert facade colors. First-return statistics may include vegetation."}, "geometry": {"type": "Polygon", "coordinates": [[[54.13460461888462, 5.093799651134759], [47.71694777358789, 6.186195721384138], [49.21836026897654, 15.709038423839957], [55.28345678478945, 14.676972601562738], [54.28745599684771, 6.05992515059188], [54.13460461888462, 5.093799651134759]]]}}, {"type": "Feature", "properties": {"id": "201006.0160749", "address": "1016;1018", "street": "Lombard Street", "source_footprint_area_m2": 47.8330004830793, "modeled_footprint_area_m2": 47.8330004830793, "public_clearance_clip_m2": 0.0, "ground_min_navd88_m": 63.55, "median_first_return_navd88_m": 73.58, "source_median_height_m": 8.96, "source_peak_navd88_m": 74.8, "source_height_std_m": 0.3919385932, "skipped_parent_overlap_writes": 0, "interpretation": "Flat height-envelope cap, not inferred roof shape; neutral palette does not assert facade colors. First-return statistics may include vegetation."}, "geometry": {"type": "Polygon", "coordinates": [[[94.90098530706018, -47.66580930352211], [103.41040923213586, -49.003594583366066], [102.57105444814079, -54.340145542752], [102.56840585370082, -54.34134955983609], [96.33841262001079, -53.361369075253606], [96.23679843358696, -54.00138579076156], [94.0457634277409, -53.65755708748475], [94.71302802686114, -48.85440064035356], [94.90098530706018, -47.66580930352211]]]}}, {"type": "Feature", "properties": {"id": "201006.0160976", "address": null, "street": null, "source_footprint_area_m2": 46.76167995525279, "modeled_footprint_area_m2": 46.761679955252795, "public_clearance_clip_m2": -7.105427357601002e-15, "ground_min_navd88_m": 68.48, "median_first_return_navd88_m": 74.16, "source_median_height_m": 5.24, "source_peak_navd88_m": 91.9, "source_height_std_m": 5.2379821699, "skipped_parent_overlap_writes": 0, "interpretation": "Flat height-envelope cap, not inferred roof shape; neutral palette does not assert facade colors. First-return statistics may include vegetation."}, "geometry": {"type": "Polygon", "coordinates": [[[69.30981036450248, -50.85037147765979], [62.57719611283392, -49.71661607641727], [63.714362531900406, -42.962588496506214], [70.44733156333677, -44.09679074957967], [69.30981036450248, -50.85037147765979]]]}}]}
