{
  "type": "FeatureCollection",
  "name": "datasf_row_lombard_v001",
  "features": [
    {
      "type": "Feature",
      "properties": {
        "cnn": "8448000",
        "cnntext": "8448000",
        "shape_area": "16647.4597245",
        "shape_leng": "637.260224708",
        "distance": "0"
      },
      "geometry": {
        "type": "MultiPolygon",
        "coordinates": [
          [
            [
              [
                -122.41806649760974,
                37.802093172700374
              ],
              [
                -122.4184043949957,
                37.802050838506545
              ],
              [
                -122.41856337452008,
                37.80203092099426
              ],
              [
                -122.41865418109525,
                37.80201954382773
              ],
              [
                -122.41879859664526,
                37.80200144997989
              ],
              [
                -122.41892509604284,
                37.80198560041209
              ],
              [
                -122.4189763818665,
                37.80197917476247
              ],
              [
                -122.4188471964969,
                37.8021865100117
              ],
              [
                -122.41872744430741,
                37.80220151432233
              ],
              [
                -122.41860992008985,
                37.80221623803485
              ],
              [
                -122.4184923969843,
                37.80223096251256
              ],
              [
                -122.41837487383218,
                37.802245686873164
              ],
              [
                -122.41823811891042,
                37.802262820160784
              ],
              [
                -122.41810136506092,
                37.80227995327135
              ],
              [
                -122.41806649760974,
                37.802093172700374
              ]
            ]
          ]
        ]
      }
    },
    {
      "type": "Feature",
      "properties": {
        "cnn": "8449000",
        "cnntext": "8449000",
        "shape_area": "9333.13508366",
        "shape_leng": "409.928716841",
        "distance": "0"
      },
      "geometry": {
        "type": "MultiPolygon",
        "coordinates": [
          [
            [
              [
                -122.41903287290036,
                37.80209956235966
              ],
              [
                -122.41903364763844,
                37.80197200020345
              ],
              [
                -122.41909758167725,
                37.80196398982323
              ],
              [
                -122.41910886341452,
                37.8019625760761
              ],
              [
                -122.41922920951089,
                37.8019474968172
              ],
              [
                -122.41930442523733,
                37.801938072565044
              ],
              [
                -122.41948049952336,
                37.80191601188043
              ],
              [
                -122.41951387262489,
                37.8021029795388
              ],
              [
                -122.41922327076118,
                37.80213939138536
              ],
              [
                -122.41903246221557,
                37.80216329830475
              ],
              [
                -122.41903287290036,
                37.80209956235966
              ]
            ]
          ]
        ]
      }
    }
  ]
}
