{
  "type": "FeatureCollection",
  "name": "datasf_street_controls_v001",
  "features": [
    {
      "type": "Feature",
      "properties": {
        "cnn": "7143000",
        "street": "HYDE",
        "st_type": "ST",
        "f_st": "FILBERT ST",
        "t_st": "GREENWICH ST",
        "f_node_cnn": "25553000.0",
        "t_node_cnn": "25558000.0",
        "oneway": "B",
        "data_as_of": "2026-10-01T03:56:00.000"
      },
      "geometry": {
        "type": "LineString",
        "coordinates": [
          [
            -122.419232944,
            37.800133938
          ],
          [
            -122.419425408,
            37.801062214
          ]
        ]
      }
    },
    {
      "type": "Feature",
      "properties": {
        "cnn": "7144000",
        "street": "HYDE",
        "st_type": "ST",
        "f_st": "GREENWICH ST",
        "t_st": "LOMBARD ST",
        "f_node_cnn": "25558000.0",
        "t_node_cnn": "25565000.0",
        "oneway": "B",
        "data_as_of": "2026-10-01T03:56:00.000"
      },
      "geometry": {
        "type": "LineString",
        "coordinates": [
          [
            -122.419425408,
            37.801062214
          ],
          [
            -122.419613973,
            37.801994863
          ]
        ]
      }
    },
    {
      "type": "Feature",
      "properties": {
        "cnn": "7145000",
        "street": "HYDE",
        "st_type": "ST",
        "f_st": "LOMBARD ST",
        "t_st": "CHESTNUT ST",
        "f_node_cnn": "25565000.0",
        "t_node_cnn": "25570000.0",
        "oneway": "B",
        "data_as_of": "2026-10-01T03:56:00.000"
      },
      "geometry": {
        "type": "LineString",
        "coordinates": [
          [
            -122.419613973,
            37.801994863
          ],
          [
            -122.419797279,
            37.802926828
          ]
        ]
      }
    },
    {
      "type": "Feature",
      "properties": {
        "cnn": "7146000",
        "street": "HYDE",
        "st_type": "ST",
        "f_st": "CHESTNUT ST",
        "t_st": "FRANCISCO ST",
        "f_node_cnn": "25570000.0",
        "t_node_cnn": "25571000.0",
        "oneway": "B",
        "data_as_of": "2026-10-01T03:56:00.000"
      },
      "geometry": {
        "type": "LineString",
        "coordinates": [
          [
            -122.419797279,
            37.802926828
          ],
          [
            -122.419993368,
            37.803890394
          ]
        ]
      }
    },
    {
      "type": "Feature",
      "properties": {
        "cnn": "8266000",
        "street": "LEAVENWORTH",
        "st_type": "ST",
        "f_st": "FILBERT ST",
        "t_st": "GREENWICH ST",
        "f_node_cnn": "25517000.0",
        "t_node_cnn": "25518000.0",
        "oneway": "B",
        "data_as_of": "2026-10-01T03:56:00.000"
      },
      "geometry": {
        "type": "LineString",
        "coordinates": [
          [
            -122.417586974,
            37.800340792
          ],
          [
            -122.417798643,
            37.801267348
          ]
        ]
      }
    },
    {
      "type": "Feature",
      "properties": {
        "cnn": "8267000",
        "street": "LEAVENWORTH",
        "st_type": "ST",
        "f_st": "GREENWICH ST",
        "t_st": "LURMONT TER",
        "f_node_cnn": "25518000.0",
        "t_node_cnn": "25519000.0",
        "oneway": "B",
        "data_as_of": "2026-10-01T03:56:00.000"
      },
      "geometry": {
        "type": "LineString",
        "coordinates": [
          [
            -122.417798643,
            37.801267348
          ],
          [
            -122.417877488,
            37.801706751
          ]
        ]
      }
    },
    {
      "type": "Feature",
      "properties": {
        "cnn": "8268000",
        "street": "LEAVENWORTH",
        "st_type": "ST",
        "f_st": "LURMONT TER",
        "t_st": "LOMBARD ST",
        "f_node_cnn": "25519000.0",
        "t_node_cnn": "25530000.0",
        "oneway": "B",
        "data_as_of": "2026-10-01T03:56:00.000"
      },
      "geometry": {
        "type": "LineString",
        "coordinates": [
          [
            -122.417877488,
            37.801706751
          ],
          [
            -122.417966229,
            37.802201309
          ]
        ]
      }
    },
    {
      "type": "Feature",
      "properties": {
        "cnn": "8269000",
        "street": "LEAVENWORTH",
        "st_type": "ST",
        "f_st": "LOMBARD ST",
        "t_st": "CHESTNUT ST",
        "f_node_cnn": "25530000.0",
        "t_node_cnn": "25531000.0",
        "oneway": "B",
        "data_as_of": "2026-10-01T03:56:00.000"
      },
      "geometry": {
        "type": "LineString",
        "coordinates": [
          [
            -122.417966229,
            37.802201309
          ],
          [
            -122.418151092,
            37.803135399
          ]
        ]
      }
    },
    {
      "type": "Feature",
      "properties": {
        "cnn": "8270101",
        "street": "LEAVENWORTH",
        "st_type": "ST",
        "f_st": "CHESTNUT ST",
        "t_st": "FRANCISCO ST",
        "f_node_cnn": "25531000.0",
        "t_node_cnn": "30764000.0",
        "oneway": "B",
        "data_as_of": "2026-10-01T03:56:00.000"
      },
      "geometry": {
        "type": "LineString",
        "coordinates": [
          [
            -122.418151092,
            37.803135399
          ],
          [
            -122.418255886,
            37.803650215
          ]
        ]
      }
    },
    {
      "type": "Feature",
      "properties": {
        "cnn": "8447000",
        "street": "LOMBARD",
        "st_type": "ST",
        "f_st": "JONES ST",
        "t_st": "LEAVENWORTH ST",
        "f_node_cnn": "25521000.0",
        "t_node_cnn": "25530000.0",
        "oneway": "B",
        "data_as_of": "2026-10-01T03:56:00.000"
      },
      "geometry": {
        "type": "LineString",
        "coordinates": [
          [
            -122.416324356,
            37.802410832
          ],
          [
            -122.417966229,
            37.802201309
          ]
        ]
      }
    },
    {
      "type": "Feature",
      "properties": {
        "cnn": "8448000",
        "street": "LOMBARD",
        "st_type": "ST",
        "f_st": "LEAVENWORTH ST",
        "t_st": "MONTCLAIR TER",
        "f_node_cnn": "25530000.0",
        "t_node_cnn": "25568000.0",
        "oneway": "T",
        "data_as_of": "2026-10-01T03:56:00.000"
      },
      "geometry": {
        "type": "LineString",
        "coordinates": [
          [
            -122.417966229,
            37.802201309
          ],
          [
            -122.417998999,
            37.802214914
          ],
          [
            -122.418022793,
            37.802223892
          ],
          [
            -122.418056758,
            37.802219181
          ],
          [
            -122.418182772,
            37.802123579
          ],
          [
            -122.418216307,
            37.802102245
          ],
          [
            -122.418242625,
            37.802105975
          ],
          [
            -122.418339611,
            37.802206265
          ],
          [
            -122.418373899,
            37.802214022
          ],
          [
            -122.418405083,
            37.802203121
          ],
          [
            -122.418425407,
            37.802177843
          ],
          [
            -122.418496163,
            37.802074824
          ],
          [
            -122.418522105,
            37.802064007
          ],
          [
            -122.418553503,
            37.802061417
          ],
          [
            -122.418572118,
            37.802071509
          ],
          [
            -122.418658299,
            37.802159501
          ],
          [
            -122.418689966,
            37.802167302
          ],
          [
            -122.418718744,
            37.802164755
          ],
          [
            -122.418749766,
            37.802147619
          ],
          [
            -122.418818008,
            37.802048798
          ],
          [
            -122.418838493,
            37.802029755
          ],
          [
            -122.418874972,
            37.802020845
          ],
          [
            -122.418898722,
            37.802026696
          ],
          [
            -122.418966287,
            37.802104596
          ],
          [
            -122.419003358,
            37.802118545
          ]
        ]
      }
    },
    {
      "type": "Feature",
      "properties": {
        "cnn": "8449000",
        "street": "LOMBARD",
        "st_type": "ST",
        "f_st": "MONTCLAIR TER",
        "t_st": "HYDE ST",
        "f_node_cnn": "25568000.0",
        "t_node_cnn": "25565000.0",
        "oneway": "T",
        "data_as_of": "2026-10-01T03:56:00.000"
      },
      "geometry": {
        "type": "LineString",
        "coordinates": [
          [
            -122.419003358,
            37.802118545
          ],
          [
            -122.419037645,
            37.802126303
          ],
          [
            -122.419068667,
            37.802109166
          ],
          [
            -122.419129262,
            37.802018786
          ],
          [
            -122.41914691,
            37.801991473
          ],
          [
            -122.419185849,
            37.801976287
          ],
          [
            -122.419220136,
            37.801984044
          ],
          [
            -122.419303805,
            37.802076235
          ],
          [
            -122.419359275,
            37.802091963
          ],
          [
            -122.419392865,
            37.802072706
          ],
          [
            -122.419474696,
            37.801992375
          ],
          [
            -122.419500421,
            37.801973245
          ],
          [
            -122.419529413,
            37.801979011
          ],
          [
            -122.419613973,
            37.801994863
          ]
        ]
      }
    },
    {
      "type": "Feature",
      "properties": {
        "cnn": "8450000",
        "street": "LOMBARD",
        "st_type": "ST",
        "f_st": "HYDE ST",
        "t_st": "LARKIN ST",
        "f_node_cnn": "25565000.0",
        "t_node_cnn": "25566000.0",
        "oneway": "B",
        "data_as_of": "2026-10-01T03:56:00.000"
      },
      "geometry": {
        "type": "LineString",
        "coordinates": [
          [
            -122.419613973,
            37.801994863
          ],
          [
            -122.421143701,
            37.801805861
          ],
          [
            -122.421257558,
            37.801758417
          ]
        ]
      }
    }
  ]
}
